{
  "type": "FeatureCollection",
  "name": "SP-012_AI_Spill_Footprint",
  "features": [
    {
      "type": "Feature",
      "geometry": {
        "type": "Polygon",
        "coordinates": [
          [
            [
              -89.13589766399336,
              29.624578607314106
            ],
            [
              -89.13507186752683,
              29.62459190638622
            ],
            [
              -89.13506996522564,
              29.62450171804115
            ],
            [
              -89.13465706715189,
              29.624508365627346
            ],
            [
              -89.13465516522655,
              29.6244181772567
            ],
            [
              -89.13434549185578,
              29.62442316208571
            ],
            [
              -89.1343435902145,
              29.62433297369556
            ],
            [
              -89.13403391704126,
              29.624337957784288
            ],
            [
              -89.13403201568403,
              29.62424776937462
            ],
            [
              -89.13361911836581,
              29.624254413678766
            ],
            [
              -89.13361721738444,
              29.624164225243554
            ],
            [
              -89.13351399312506,
              29.624165886112944
            ],
            [
              -89.13351209224413,
              29.62407569767033
            ],
            [
              -89.1334088680679,
              29.62407735845344
            ],
            [
              -89.13339936425194,
              29.623626416190035
            ],
            [
              -89.13350258796918,
              29.6236247554372
            ],
            [
              -89.13350068714014,
              29.62353456698656
            ],
            [
              -89.13360391075692,
              29.623532906159543
            ],
            [
              -89.13360200984472,
              29.623442717713626
            ],
            [
              -89.13370523336108,
              29.623441056812432
            ],
            [
              -89.13370333236574,
              29.623350868371208
            ],
            [
              -89.13390977918888,
              29.62334754634023
            ],
            [
              -89.13390787801862,
              29.623257357909804
            ],
            [
              -89.13432077119397,
              29.623250712909293
            ],
            [
              -89.13431886966515,
              29.62316052450174
            ],
            [
              -89.13452531601733,
              29.62315720153222
            ],
            [
              -89.13452721772973,
              29.623247389927663
            ],
            [
              -89.13463044098465,
              29.62324572831649
            ],
            [
              -89.13462853918045,
              29.62315553992712
            ],
            [
              -89.13524787797743,
              29.623145568611637
            ],
            [
              -89.13524597563114,
              29.623055380257252
            ],
            [
              -89.1358653135658,
              29.62304540608985
            ],
            [
              -89.13586341067739,
              29.6229552177705
            ],
            [
              -89.13596663354441,
              29.622953555134522
            ],
            [
              -89.13596473057287,
              29.622863366819885
            ],
            [
              -89.13617117609733,
              29.62286004131937
            ],
            [
              -89.13616736981305,
              29.62267966471033
            ],
            [
              -89.13627059237872,
              29.62267800185186
            ],
            [
              -89.13625727001387,
              29.62204668372051
            ],
            [
              -89.13615404809073,
              29.622048346536555
            ],
            [
              -89.13615214502218,
              29.621958158220664
            ],
            [
              -89.13604892318216,
              29.62195982095042
            ],
            [
              -89.13604702021406,
              29.621869632627124
            ],
            [
              -89.13594379845718,
              29.621871295270605
            ],
            [
              -89.13594189558951,
              29.621781106939913
            ],
            [
              -89.13583867391577,
              29.621782769497095
            ],
            [
              -89.13583677114855,
              29.62169258115901
            ],
            [
              -89.13563032795865,
              29.621695906020598
            ],
            [
              -89.13562842538366,
              29.62160571766905
            ],
            [
              -89.1354219823427,
              29.621609042197612
            ],
            [
              -89.13542007995996,
              29.6215188538326
            ],
            [
              -89.1353168585183,
              29.621520515970484
            ],
            [
              -89.13531495623596,
              29.62143032759808
            ],
            [
              -89.13521173487743,
              29.621431989649682
            ],
            [
              -89.13520983269555,
              29.62134180126988
            ],
            [
              -89.13510661142014,
              29.621343463235196
            ],
            [
              -89.13510470933869,
              29.621253274847998
            ],
            [
              -89.13500148814644,
              29.621254936727034
            ],
            [
              -89.13499958616542,
              29.621164748332443
            ],
            [
              -89.13489636505629,
              29.621166410125205
            ],
            [
              -89.13489446317573,
              29.621076221723218
            ],
            [
              -89.13479124214972,
              29.621077883429685
            ],
            [
              -89.13478934036958,
              29.620987695020297
            ],
            [
              -89.1346861194267,
              29.62098935664049
            ],
            [
              -89.13468231607597,
              29.62080897980559
            ],
            [
              -89.13457909530801,
              29.62081064133345
            ],
            [
              -89.1345771937374,
              29.62072045290794
            ],
            [
              -89.13447397305258,
              29.620722114349505
            ],
            [
              -89.13447207158241,
              29.6206319259166
            ],
            [
              -89.1343688509807,
              29.620633587271897
            ],
            [
              -89.13436504824988,
              29.620453210389947
            ],
            [
              -89.13415860738768,
              29.620456532835647
            ],
            [
              -89.13415480505856,
              29.620276155924135
            ],
            [
              -89.13405158479804,
              29.620277817014546
            ],
            [
              -89.13404968373825,
              29.620187628550724
            ],
            [
              -89.13394646356086,
              29.620189289554848
            ],
            [
              -89.13394456260149,
              29.620099101083632
            ],
            [
              -89.13384134250724,
              29.6201007620015
            ],
            [
              -89.13383944164829,
              29.62001057352289
            ],
            [
              -89.13373622163718,
              29.62001223435447
            ],
            [
              -89.13373432087866,
              29.619922045868464
            ],
            [
              -89.13363110095068,
              29.619923706613772
            ],
            [
              -89.13362729964314,
              29.61974332962565
            ],
            [
              -89.13352407989007,
              29.61974499027864
            ],
            [
              -89.13352217934104,
              29.619654801776495
            ],
            [
              -89.1334189596711,
              29.619656462343205
            ],
            [
              -89.13341515878257,
              29.619476085322848
            ],
            [
              -89.13331193928754,
              29.619477745797237
            ],
            [
              -89.133310038948,
              29.619387557278984
            ],
            [
              -89.1332068195361,
              29.61938921766709
            ],
            [
              -89.133204919297,
              29.619299029141462
            ],
            [
              -89.13310169996824,
              29.619300689443307
            ],
            [
              -89.13309789969952,
              29.619120312375916
            ],
            [
              -89.13299468054566,
              29.61912197258543
            ],
            [
              -89.13299088049507,
              29.618941595500583
            ],
            [
              -89.13288766151612,
              29.61894325561778
            ],
            [
              -89.13288576159556,
              29.618853067067302
            ],
            [
              -89.13278254269973,
              29.618854727098228
            ],
            [
              -89.13278064287961,
              29.618764538540347
            ],
            [
              -89.13267742406691,
              29.61876619848501
            ],
            [
              -89.13267362463611,
              29.618585821353157
            ],
            [
              -89.13257040599832,
              29.618587481205502
            ],
            [
              -89.13256660678566,
              29.618407104056192
            ],
            [
              -89.13246338832278,
              29.618408763816205
            ],
            [
              -89.13246148882116,
              29.61831857523349
            ],
            [
              -89.1323582704414,
              29.618320234907245
            ],
            [
              -89.13235637104023,
              29.61823004631714
            ],
            [
              -89.1322531527436,
              29.618231705904634
            ],
            [
              -89.13225125344283,
              29.61814151730714
            ],
            [
              -89.13214803522933,
              29.61814317680837
            ],
            [
              -89.13214613602898,
              29.6180529882035
            ],
            [
              -89.13204291789862,
              29.618054647618468
            ],
            [
              -89.13204101879866,
              29.617964459006195
            ],
            [
              -89.13193780075143,
              29.6179661183349
            ],
            [
              -89.13193590175189,
              29.61787592971525
            ],
            [
              -89.13183268378779,
              29.617877588957686
            ],
            [
              -89.13183078488866,
              29.617787400330634
            ],
            [
              -89.13162434911807,
              29.61779071856278
            ],
            [
              -89.13162245041113,
              29.617700529922303
            ],
            [
              -89.13151923260466,
              29.61770218891201
            ],
            [
              -89.1315173339981,
              29.617612000264145
            ],
            [
              -89.13141411627477,
              29.61761365916759
            ],
            [
              -89.13141221776863,
              29.61752347051234
            ],
            [
              -89.13130900012841,
              29.617525129329522
            ],
            [
              -89.13130520332558,
              29.617344752002914
            ],
            [
              -89.13120198586027,
              29.617346410727798
            ],
            [
              -89.13119439272533,
              29.616985656034366
            ],
            [
              -89.13109117561845,
              29.616987314654835
            ],
            [
              -89.13108168485292,
              29.616536371227696
            ],
            [
              -89.13097846819623,
              29.616538029737736
            ],
            [
              -89.13097277411583,
              29.61626746364726
            ],
            [
              -89.13086955772579,
              29.616269122058945
            ],
            [
              -89.1308657618989,
              29.61608874464652
            ],
            [
              -89.13076254568375,
              29.616090402965902
            ],
            [
              -89.13076064787501,
              29.616000214251635
            ],
            [
              -89.130657431743,
              29.616001872484752
            ],
            [
              -89.13065363633497,
              29.61582149504013
            ],
            [
              -89.13055042037783,
              29.61582315318096
            ],
            [
              -89.13054662518785,
              29.615642775718886
            ],
            [
              -89.1304434094056,
              29.615644433767425
            ],
            [
              -89.13044151191532,
              29.61555424502832
            ],
            [
              -89.13033829621621,
              29.615555902990607
            ],
            [
              -89.13033260407244,
              29.615285336747192
            ],
            [
              -89.13022938863998,
              29.61528699461113
            ],
            [
              -89.13021421070378,
              29.61456548452145
            ],
            [
              -89.13011099599673,
              29.614567142256835
            ],
            [
              -89.13009961345765,
              29.61402600959714
            ],
            [
              -89.1299963992925,
              29.61402766721606
            ],
            [
              -89.12998122379108,
              29.613306156879897
            ],
            [
              -89.12987801035129,
              29.61330781437027
            ],
            [
              -89.12984007584909,
              29.6115040380345
            ],
            [
              -89.12994328745394,
              29.61150238066498
            ],
            [
              -89.12993949401009,
              29.61132200301406
            ],
            [
              -89.13014591682695,
              29.611318688058628
            ],
            [
              -89.13014401993448,
              29.611228499243257
            ],
            [
              -89.13035044253334,
              29.61122518397914
            ],
            [
              -89.13035233960927,
              29.611315372782425
            ],
            [
              -89.1305587623571,
              29.61131205718545
            ],
            [
              -89.13056065962516,
              29.61140224597532
            ],
            [
              -89.13066387107786,
              29.6114005880505
            ],
            [
              -89.13066766582334,
              29.61158096561412
            ],
            [
              -89.1307708774509,
              29.611579307597015
            ],
            [
              -89.130782262445,
              29.612120440219513
            ],
            [
              -89.13088547461439,
              29.612118782085936
            ],
            [
              -89.1308930651501,
              29.612479537116677
            ],
            [
              -89.13099627767781,
              29.61247787887872
            ],
            [
              -89.1310019709455,
              29.612748445119585
            ],
            [
              -89.13110518373982,
              29.612746786783305
            ],
            [
              -89.13111087736046,
              29.613017352993992
            ],
            [
              -89.13121409042138,
              29.61301569455937
            ],
            [
              -89.13122927452368,
              29.613737204347327
            ],
            [
              -89.13133248830997,
              29.613735545784124
            ],
            [
              -89.13133818276606,
              29.614006111914385
            ],
            [
              -89.13144139681899,
              29.614004453252853
            ],
            [
              -89.13144709162806,
              29.614275019352934
            ],
            [
              -89.1315503059476,
              29.61427336059305
            ],
            [
              -89.13156739166703,
              29.615085058766653
            ],
            [
              -89.13146417652169,
              29.615086717580972
            ],
            [
              -89.1314698716417,
              29.6153572836329
            ],
            [
              -89.1315730870623,
              29.61535562480044
            ],
            [
              -89.13158447808608,
              29.6158967568319
            ],
            [
              -89.13168769404861,
              29.615895097882962
            ],
            [
              -89.13169149130916,
              29.61607547520399
            ],
            [
              -89.13179470744657,
              29.616073816162736
            ],
            [
              -89.13179660618157,
              29.616164004815186
            ],
            [
              -89.1318998224021,
              29.61616234568768
            ],
            [
              -89.1319017212375,
              29.616252534332745
            ],
            [
              -89.13200493754117,
              29.616250875118983
            ],
            [
              -89.1320087354214,
              29.61643125239301
            ],
            [
              -89.13211195189994,
              29.616429593086927
            ],
            [
              -89.13211385094479,
              29.616519781715894
            ],
            [
              -89.13221706750646,
              29.616518122323566
            ],
            [
              -89.13222086580558,
              29.616698499565366
            ],
            [
              -89.13232408254214,
              29.616696840080714
            ],
            [
              -89.13232598179644,
              29.616787028693565
            ],
            [
              -89.13242919861612,
              29.616785369122663
            ],
            [
              -89.13243299733415,
              29.61696574633225
            ],
            [
              -89.13253621432872,
              29.61696408666903
            ],
            [
              -89.13254001326486,
              29.61714446386116
            ],
            [
              -89.13264323043433,
              29.61714280410564
            ],
            [
              -89.13264702958855,
              29.617323181280295
            ],
            [
              -89.13275024693291,
              29.617321521432462
            ],
            [
              -89.13275404630525,
              29.61750189858968
            ],
            [
              -89.1328572638245,
              29.617500238649527
            ],
            [
              -89.13286106341495,
              29.617680615789286
            ],
            [
              -89.1330674987946,
              29.61767729564414
            ],
            [
              -89.13306939878633,
              29.617767484199913
            ],
            [
              -89.13317261655496,
              29.61776582400096
            ],
            [
              -89.1331745166471,
              29.61785601254934
            ],
            [
              -89.13327773449885,
              29.617854352264132
            ],
            [
              -89.1332796346914,
              29.617944540805116
            ],
            [
              -89.13338285262628,
              29.61794288043364
            ],
            [
              -89.13338475291926,
              29.618033068967247
            ],
            [
              -89.13348797093725,
              29.6180314085095
            ],
            [
              -89.13348987133065,
              29.6181215970357
            ],
            [
              -89.13359308943177,
              29.61811993649168
            ],
            [
              -89.13359498992557,
              29.6182101250105
            ],
            [
              -89.13369820810983,
              29.61820846438021
            ],
            [
              -89.13370200930693,
              29.61838884140173
            ],
            [
              -89.13390844601658,
              29.61838551987631
            ],
            [
              -89.13391224761534,
              29.61856589686825
            ],
            [
              -89.1341186846575,
              29.618562574997746
            ],
            [
              -89.13412058565339,
              29.61865276347959
            ],
            [
              -89.13422380425327,
              29.618651102417964
            ],
            [
              -89.13422570534959,
              29.618741290892416
            ],
            [
              -89.13443214270696,
              29.618737968516403
            ],
            [
              -89.13443404399547,
              29.618828156977422
            ],
            [
              -89.13464048150179,
              29.61882483426842
            ],
            [
              -89.13464238298249,
              29.618915022715978
            ],
            [
              -89.13474560181446,
              29.618913361235098
            ],
            [
              -89.1347475033956,
              29.61900354967526
            ],
            [
              -89.13485072231067,
              29.619001888108105
            ],
            [
              -89.13485262399223,
              29.61909207654088
            ],
            [
              -89.13505906197999,
              29.6190887531538
            ],
            [
              -89.13506096385376,
              29.619178941573114
            ],
            [
              -89.13516418292643,
              29.6191772797532
            ],
            [
              -89.13516608490063,
              29.619267468165116
            ],
            [
              -89.13526930405642,
              29.619265806258916
            ],
            [
              -89.13527120613104,
              29.619355994663437
            ],
            [
              -89.13537442536996,
              29.61935433267097
            ],
            [
              -89.13537632754502,
              29.619444521068097
            ],
            [
              -89.13547954686706,
              29.619442858989345
            ],
            [
              -89.13548144914255,
              29.61953304737907
            ],
            [
              -89.13558466854771,
              29.619531385214042
            ],
            [
              -89.13558657092362,
              29.61962157359637
            ],
            [
              -89.13568979041192,
              29.61961991134507
            ],
            [
              -89.13569169288826,
              29.61971009972001
            ],
            [
              -89.13579491245967,
              29.61970843738243
            ],
            [
              -89.13579681503646,
              29.61979862574996
            ],
            [
              -89.13600325433686,
              29.61979530082202
            ],
            [
              -89.13600515710586,
              29.619885489176085
            ],
            [
              -89.13610837683485,
              29.619883826585728
            ],
            [
              -89.1361102797043,
              29.6199740149324
            ],
            [
              -89.13641993911466,
              29.61996902666182
            ],
            [
              -89.13642184226809,
              29.62005921498897
            ],
            [
              -89.13673150187589,
              29.620054225978226
            ],
            [
              -89.13673340531331,
              29.620144414285846
            ],
            [
              -89.13704306511849,
              29.62013942453494
            ],
            [
              -89.13704496883992,
              29.62022961282304
            ],
            [
              -89.13714818884944,
              29.62022794940623
            ],
            [
              -89.1371500926713,
              29.620318137686926
            ],
            [
              -89.13725331276395,
              29.620316474183834
            ],
            [
              -89.13725521668626,
              29.62040666245712
            ],
            [
              -89.13746165702912,
              29.62040333519814
            ],
            [
              -89.13746356114365,
              29.620493523457977
            ],
            [
              -89.13756678139386,
              29.62049185970209
            ],
            [
              -89.13756868560884,
              29.62058204795452
            ],
            [
              -89.13767190594217,
              29.62058038411235
            ],
            [
              -89.1376738102576,
              29.620670572357373
            ],
            [
              -89.13777703067404,
              29.620668908428907
            ],
            [
              -89.13777893508991,
              29.62075909666652
            ],
            [
              -89.1379853760804,
              29.62075576855681
            ],
            [
              -89.13798728068849,
              29.62084595678095
            ],
            [
              -89.13809050126251,
              29.620844292599696
            ],
            [
              -89.13809240597105,
              29.62093448081644
            ],
            [
              -89.13819562662819,
              29.62093281654889
            ],
            [
              -89.13819753143719,
              29.621023004758225
            ],
            [
              -89.13830075217744,
              29.621021340404393
            ],
            [
              -89.1383026570869,
              29.621111528606324
            ],
            [
              -89.13850909872497,
              29.621108199645846
            ],
            [
              -89.13851100382665,
              29.6211983878343
            ],
            [
              -89.13871744561362,
              29.621195058540806
            ],
            [
              -89.13871935090755,
              29.621285246715775
            ],
            [
              -89.13933867661115,
              29.62127525687351
            ],
            [
              -89.13933677076653,
              29.62118506873495
            ],
            [
              -89.14036897866103,
              29.62116841264068
            ],
            [
              -89.14036707190725,
              29.621078224561494
            ],
            [
              -89.1405735131985,
              29.621074892392127
            ],
            [
              -89.14057160626983,
              29.620984704323746
            ],
            [
              -89.1408812678663,
              29.620979705486224
            ],
            [
              -89.14087936067095,
              29.620889517434733
            ],
            [
              -89.14170512381214,
              29.6208761837202
            ],
            [
              -89.14170321589121,
              29.62078599571597
            ],
            [
              -89.14201287665061,
              29.6207809942676
            ],
            [
              -89.14201478484686,
              29.62087118225358
            ],
            [
              -89.14242766610498,
              29.620864512508344
            ],
            [
              -89.14242575754159,
              29.620774324546666
            ],
            [
              -89.14252897774263,
              29.620772656915886
            ],
            [
              -89.1425308863978,
              29.62086284487148
            ],
            [
              -89.14294376748225,
              29.620856173521812
            ],
            [
              -89.14294567651324,
              29.62094636145176
            ],
            [
              -89.14315211718693,
              29.62094302528344
            ],
            [
              -89.14315402641016,
              29.62103321319988
            ],
            [
              -89.14325724682575,
              29.621031544989307
            ],
            [
              -89.14325915614944,
              29.62112173289832
            ],
            [
              -89.14336237664814,
              29.621120064601445
            ],
            [
              -89.14337001439695,
              29.621480816199817
            ],
            [
              -89.14347323525409,
              29.621479147798382
            ],
            [
              -89.1434751448048,
              29.621569335688555
            ],
            [
              -89.14357836574503,
              29.62156766720082
            ],
            [
              -89.1435802753962,
              29.62165785508356
            ],
            [
              -89.14378671743418,
              29.62165451785526
            ],
            [
              -89.14378862727762,
              29.62174470572449
            ],
            [
              -89.14409829054476,
              29.62173969926211
            ],
            [
              -89.14410020067224,
              29.62182988711176
            ],
            [
              -89.14430664299047,
              29.621826549056888
            ],
            [
              -89.14430855331021,
              29.621916736893034
            ],
            [
              -89.14441177454806,
              29.62191506773917
            ],
            [
              -89.14441368496828,
              29.622005255567885
            ],
            [
              -89.14472334890507,
              29.622000247606714
            ],
            [
              -89.14472143820952,
              29.621910059796246
            ],
            [
              -89.14503110179272,
              29.6219050511313
            ],
            [
              -89.14503301276365,
              29.62199523892351
            ],
            [
              -89.1454458977867,
              29.621988559556097
            ],
            [
              -89.14544398644863,
              29.621898371788237
            ],
            [
              -89.14575364984924,
              29.62189336143859
            ],
            [
              -89.14575173824451,
              29.621803173687656
            ],
            [
              -89.14606140129152,
              29.621798162634253
            ],
            [
              -89.14606331317161,
              29.62188835036692
            ],
            [
              -89.14626975534301,
              29.621885009251358
            ],
            [
              -89.14627166741538,
              29.621975196970503
            ],
            [
              -89.14637488857983,
              29.621973526286293
            ],
            [
              -89.1463863617474,
              29.622514652536506
            ],
            [
              -89.14628314003224,
              29.622516323257255
            ],
            [
              -89.1462850521655,
              29.622606510967028
            ],
            [
              -89.14618183034985,
              29.622608181613646
            ],
            [
              -89.14618374240001,
              29.622698369328162
            ],
            [
              -89.14597729855902,
              29.62270171039288
            ],
            [
              -89.1459792104343,
              29.62279189811825
            ],
            [
              -89.14577276637495,
              29.622795238874247
            ],
            [
              -89.14577467807536,
              29.622885426610445
            ],
            [
              -89.14567145594084,
              29.62288709687419
            ],
            [
              -89.14567336755815,
              29.62297728461514
            ],
            [
              -89.14557014532315,
              29.622978954804744
            ],
            [
              -89.14557205685736,
              29.623069142550445
            ],
            [
              -89.14546883452186,
              29.623070812665915
            ],
            [
              -89.145470745973,
              29.623161000416356
            ],
            [
              -89.14536752353702,
              29.62316267045769
            ],
            [
              -89.14536943490504,
              29.623252858212886
            ],
            [
              -89.14526621236858,
              29.623254528180073
            ],
            [
              -89.14526812365351,
              29.623344715940014
            ],
            [
              -89.14516490101656,
              29.623346385833052
            ],
            [
              -89.14516681221839,
              29.62343657359774
            ],
            [
              -89.14506358948094,
              29.62343824341665
            ],
            [
              -89.14506550059969,
              29.623528431186088
            ],
            [
              -89.14496227776176,
              29.623530100930843
            ],
            [
              -89.14496418879739,
              29.623620288705027
            ],
            [
              -89.14403518203876,
              29.62363531285229
            ],
            [
              -89.14403327182929,
              29.623545125023348
            ],
            [
              -89.14372360302869,
              29.623550131610042
            ],
            [
              -89.14372169310327,
              29.623459943761503
            ],
            [
              -89.14361847024415,
              29.623461612457188
            ],
            [
              -89.14361656041922,
              29.62337142460124
            ],
            [
              -89.14341011485851,
              29.623374761739758
            ],
            [
              -89.14340820522585,
              29.623284573870304
            ],
            [
              -89.14330498252426,
              29.62328624231314
            ],
            [
              -89.14330307299207,
              29.623196054436242
            ],
            [
              -89.1419611782743,
              29.623217736813245
            ],
            [
              -89.14196308661317,
              29.62330792476918
            ],
            [
              -89.14165341811761,
              29.623312926487372
            ],
            [
              -89.14165532618979,
              29.62340311446019
            ],
            [
              -89.14113921139794,
              29.62341144908297
            ],
            [
              -89.14114111901984,
              29.623501637084825
            ],
            [
              -89.14072822666297,
              29.623508303363206
            ],
            [
              -89.14073013392637,
              29.623598491388034
            ],
            [
              -89.1403172410635,
              29.623605156407034
            ],
            [
              -89.14031914796838,
              29.62369534445479
            ],
            [
              -89.14000947795476,
              29.62370034239484
            ],
            [
              -89.14001138459295,
              29.6237905304595
            ],
            [
              -89.13970171422586,
              29.623795527695684
            ],
            [
              -89.13970362059732,
              29.623885715777217
            ],
            [
              -89.1393939498768,
              29.623890712309528
            ],
            [
              -89.13939585598155,
              29.623980900407926
            ],
            [
              -89.13846684252563,
              29.623995885726966
            ],
            [
              -89.13846874781287,
              29.62408607387865
            ],
            [
              -89.13826230009927,
              29.624089403079132
            ],
            [
              -89.13826420521158,
              29.624179591241624
            ],
            [
              -89.1379545333008,
              29.624184584458792
            ],
            [
              -89.13795643814638,
              29.62427477263814
            ],
            [
              -89.1376467658822,
              29.62427976515142
            ],
            [
              -89.13764867046106,
              29.624369953347628
            ],
            [
              -89.13682287664099,
              29.6243832632346
            ],
            [
              -89.1368247804941,
              29.624473451477993
            ],
            [
              -89.13589576095778,
              29.624488419017506
            ],
            [
              -89.13589766399336,
              29.624578607314106
            ]
          ]
        ]
      },
      "properties": {
        "incident_id": "SP-012",
        "type": "AI-detected-slick",
        "source": "Sentinel-1 SAR",
        "method": "U-Net segmentation + radiometric filtering"
      }
    },
    {
      "type": "Feature",
      "geometry": {
        "type": "Polygon",
        "coordinates": [
          [
            [
              -89.13092796452662,
              29.609231083049394
            ],
            [
              -89.13051512757424,
              29.60923771464949
            ],
            [
              -89.13050943641746,
              29.608967148179595
            ],
            [
              -89.13040622743297,
              29.608968805861014
            ],
            [
              -89.13037398057116,
              29.607435595534838
            ],
            [
              -89.1304771879963,
              29.607433937956166
            ],
            [
              -89.13047149735739,
              29.607163371406024
            ],
            [
              -89.13057470449874,
              29.60716171376531
            ],
            [
              -89.13055573534615,
              29.60625982523837
            ],
            [
              -89.13065894156168,
              29.606258167577927
            ],
            [
              -89.13065135377543,
              29.605897412153883
            ],
            [
              -89.13075455961545,
              29.605895754437434
            ],
            [
              -89.13074507461829,
              29.605444810157525
            ],
            [
              -89.13084827999113,
              29.605443152391125
            ],
            [
              -89.13084258882125,
              29.60517258582526
            ],
            [
              -89.13094579391031,
              29.605170927996834
            ],
            [
              -89.13094199965681,
              29.604990550291667
            ],
            [
              -89.13104520455381,
              29.604988892395156
            ],
            [
              -89.13103951296317,
              29.604718325845507
            ],
            [
              -89.13114271757641,
              29.604716667886947
            ],
            [
              -89.13114082030508,
              29.604626479040444
            ],
            [
              -89.13124402481797,
              29.604624821007768
            ],
            [
              -89.1312402301178,
              29.60444444332283
            ],
            [
              -89.13134343443865,
              29.604442785222073
            ],
            [
              -89.13133774217802,
              29.604172218702768
            ],
            [
              -89.13144094621511,
              29.604170560539988
            ],
            [
              -89.13143525375705,
              29.603899994026783
            ],
            [
              -89.13153845751039,
              29.603898335801976
            ],
            [
              -89.13152896979445,
              29.603447391616793
            ],
            [
              -89.13163217308063,
              29.603445733342056
            ],
            [
              -89.13162648027955,
              29.603175166833044
            ],
            [
              -89.13172968328199,
              29.603173508496273
            ],
            [
              -89.13172019499439,
              29.602722564318086
            ],
            [
              -89.13182339752967,
              29.602720905931385
            ],
            [
              -89.13181390899945,
              29.602269961750004
            ],
            [
              -89.13191711106762,
              29.602268303313384
            ],
            [
              -89.131911417778,
              29.60199773680664
            ],
            [
              -89.13201461956244,
              29.601996078307998
            ],
            [
              -89.13201082389581,
              29.60181570064226
            ],
            [
              -89.13211402548822,
              29.60181404207556
            ],
            [
              -89.13211022967273,
              29.601633664416553
            ],
            [
              -89.13221343107313,
              29.601632005781795
            ],
            [
              -89.1322096351088,
              29.601451628129535
            ],
            [
              -89.13231283631715,
              29.601449969426707
            ],
            [
              -89.13230904020399,
              29.601269591781215
            ],
            [
              -89.13241224122032,
              29.601267933010316
            ],
            [
              -89.13240654684027,
              29.600997366550175
            ],
            [
              -89.1325097475729,
              29.600995707717278
            ],
            [
              -89.13250595117931,
              29.600815330082597
            ],
            [
              -89.13260915171993,
              29.60081367118164
            ],
            [
              -89.13260535517752,
              29.60063329355371
            ],
            [
              -89.1327085555261,
              29.600631634584694
            ],
            [
              -89.13270475883486,
              29.600451256963513
            ],
            [
              -89.13280795899144,
              29.600449597926442
            ],
            [
              -89.13280606056708,
              29.6003594091199
            ],
            [
              -89.13290926062332,
              29.60035775000872
            ],
            [
              -89.13290166664555,
              29.599996994793365
            ],
            [
              -89.13300486632639,
              29.59999533562623
            ],
            [
              -89.13299917065872,
              29.599724769218824
            ],
            [
              -89.13310237005587,
              29.599723109989696
            ],
            [
              -89.13309667419087,
              29.599452543588416
            ],
            [
              -89.13319987330433,
              29.599450884297276
            ],
            [
              -89.13319417724205,
              29.599180317902114
            ],
            [
              -89.1332973760718,
              29.599178658548983
            ],
            [
              -89.13329357855677,
              29.598998280957623
            ],
            [
              -89.13339677719452,
              29.598996621536436
            ],
            [
              -89.1333929795307,
              29.59881624395183
            ],
            [
              -89.13349617797644,
              29.598814584462605
            ],
            [
              -89.13349048127046,
              29.59854401809381
            ],
            [
              -89.13359367943252,
              29.598542358542588
            ],
            [
              -89.13359178045611,
              29.59845216975637
            ],
            [
              -89.13369497851787,
              29.598450510131055
            ],
            [
              -89.13369118040764,
              29.59827013256671
            ],
            [
              -89.13379437827739,
              29.59826847287335
            ],
            [
              -89.13377348828053,
              29.59727639624044
            ],
            [
              -89.13387668513317,
              29.59727473653351
            ],
            [
              -89.13387478600274,
              29.59718454774674
            ],
            [
              -89.13397798275508,
              29.597182887965708
            ],
            [
              -89.13397228514056,
              29.596912321615502
            ],
            [
              -89.13407548160923,
              29.59691066177249
            ],
            [
              -89.13406218683613,
              29.59627934028424
            ],
            [
              -89.13416538265447,
              29.59627768040347
            ],
            [
              -89.13415778546472,
              29.595916925262127
            ],
            [
              -89.13426098090774,
              29.595915265325424
            ],
            [
              -89.13425338348961,
              29.595554510186897
            ],
            [
              -89.13435657855732,
              29.595552850194274
            ],
            [
              -89.13434708152077,
              29.595101906271292
            ],
            [
              -89.13445027612151,
              29.59510024622881
            ],
            [
              -89.13444457772832,
              29.594829679877126
            ],
            [
              -89.13434138340257,
              29.594831339901454
            ],
            [
              -89.134320490968,
              29.593839263109082
            ],
            [
              -89.13442368428548,
              29.593837603151353
            ],
            [
              -89.1344122883029,
              29.593296470323644
            ],
            [
              -89.13451548106178,
              29.59329481032211
            ],
            [
              -89.13451358166995,
              29.593204621518865
            ],
            [
              -89.13441038900271,
              29.593206281514345
            ],
            [
              -89.13440848971118,
              29.593116092703696
            ],
            [
              -89.13451168228676,
              29.593114432714277
            ],
            [
              -89.13448699109179,
              29.59194197813301
            ],
            [
              -89.13459018246724,
              29.591940318142168
            ],
            [
              -89.13458068578447,
              29.59148937404255
            ],
            [
              -89.13468387669303,
              29.591487714001868
            ],
            [
              -89.1346762791358,
              29.59112695872231
            ],
            [
              -89.13477946966914,
              29.59112529862571
            ],
            [
              -89.13476997245886,
              29.590674354526474
            ],
            [
              -89.13466678238375,
              29.59067601459279
            ],
            [
              -89.1346553865665,
              29.590134881593226
            ],
            [
              -89.13475857609176,
              29.590133221563235
            ],
            [
              -89.13475097868657,
              29.589772466227682
            ],
            [
              -89.13485416783661,
              29.589770806141797
            ],
            [
              -89.13484467081639,
              29.589319861972527
            ],
            [
              -89.1349478594996,
              29.589318201836797
            ],
            [
              -89.13493646281076,
              29.588777068825884
            ],
            [
              -89.13503965093552,
              29.588775408646374
            ],
            [
              -89.13503015347435,
              29.588324464464122
            ],
            [
              -89.13513334113229,
              29.588322804234767
            ],
            [
              -89.13512574295241,
              29.587962048889114
            ],
            [
              -89.13522893023517,
              29.58796038860388
            ],
            [
              -89.13522513101384,
              29.58778001093514
            ],
            [
              -89.13532831810471,
              29.58777835058191
            ],
            [
              -89.13532641841537,
              29.58768816175159
            ],
            [
              -89.13542960540596,
              29.587686501324285
            ],
            [
              -89.13542770563363,
              29.587596312498686
            ],
            [
              -89.13553089252396,
              29.587594651997332
            ],
            [
              -89.13552899266865,
              29.58750446317646
            ],
            [
              -89.13625130001732,
              29.587492837466133
            ],
            [
              -89.13625320051403,
              29.587583026244598
            ],
            [
              -89.13635638733516,
              29.587581365102324
            ],
            [
              -89.13636018853776,
              29.58776174264314
            ],
            [
              -89.13646337553351,
              29.58776008140863
            ],
            [
              -89.13646717695397,
              29.58794045893195
            ],
            [
              -89.13657036412432,
              29.587938797605204
            ],
            [
              -89.13659317447332,
              29.589021062560132
            ],
            [
              -89.13669636273463,
              29.589019401080538
            ],
            [
              -89.13670206579141,
              29.589289967270993
            ],
            [
              -89.13680525431896,
              29.589288305693103
            ],
            [
              -89.13681476004481,
              29.589739249286815
            ],
            [
              -89.13671157105907,
              29.58974091089501
            ],
            [
              -89.13671347213855,
              29.589831099615797
            ],
            [
              -89.13681666121595,
              29.589829438001534
            ],
            [
              -89.13681856239572,
              29.58991962671493
            ],
            [
              -89.13671537322668,
              29.589921288335262
            ],
            [
              -89.13673058224323,
              29.59064279804273
            ],
            [
              -89.1368337721454,
              29.590641136373915
            ],
            [
              -89.13684327852013,
              29.591092079867312
            ],
            [
              -89.13674008815974,
              29.591093741566425
            ],
            [
              -89.13675149554506,
              29.59163487375074
            ],
            [
              -89.13664830462615,
              29.591636535406092
            ],
            [
              -89.13667682307737,
              29.592989365747126
            ],
            [
              -89.13657363077503,
              29.59299102741327
            ],
            [
              -89.1365812356575,
              29.593351782144282
            ],
            [
              -89.1364780429799,
              29.593353443754545
            ],
            [
              -89.13649515364666,
              29.59416514187565
            ],
            [
              -89.1363919601355,
              29.59416680346032
            ],
            [
              -89.13639766357183,
              29.594437369494788
            ],
            [
              -89.13629446977703,
              29.594439031017494
            ],
            [
              -89.13630587633331,
              29.59498016308669
            ],
            [
              -89.13620268197988,
              29.594981824565625
            ],
            [
              -89.13620648405119,
              29.59516220192345
            ],
            [
              -89.13610328950578,
              29.59516386333436
            ],
            [
              -89.13611089338553,
              29.595524618058185
            ],
            [
              -89.13600769846482,
              29.595526279413203
            ],
            [
              -89.13601340119047,
              29.595796845460193
            ],
            [
              -89.13591020598611,
              29.595798506753248
            ],
            [
              -89.13592351200701,
              29.59642982752519
            ],
            [
              -89.13582031615233,
              29.596431488780514
            ],
            [
              -89.13582411776709,
              29.596611866144
            ],
            [
              -89.1357209217204,
              29.5966135273313
            ],
            [
              -89.1357228224491,
              29.59670371601709
            ],
            [
              -89.13561962630209,
              29.5967053771303
            ],
            [
              -89.1356291296169,
              29.597156320569525
            ],
            [
              -89.13552593300288,
              29.597157981632876
            ],
            [
              -89.13552973420599,
              29.597338359011317
            ],
            [
              -89.1354265374,
              29.597340020006637
            ],
            [
              -89.13542843792284,
              29.597430208699915
            ],
            [
              -89.1353252410165,
              29.597431869621158
            ],
            [
              -89.13532904190481,
              29.597612247015796
            ],
            [
              -89.13522584480648,
              29.597613907869004
            ],
            [
              -89.13523154592876,
              29.597884473969117
            ],
            [
              -89.13512834854676,
              29.597886134760348
            ],
            [
              -89.13513214915483,
              29.598066512165843
            ],
            [
              -89.13502895158082,
              29.598068172889047
            ],
            [
              -89.13503275204012,
              29.598248550301303
            ],
            [
              -89.13492955427411,
              29.598250210956458
            ],
            [
              -89.13494095530946,
              29.598791343197494
            ],
            [
              -89.13483775698472,
              29.59879300380885
            ],
            [
              -89.13483965709585,
              29.598883192517068
            ],
            [
              -89.1347364586708,
              29.59888485305432
            ],
            [
              -89.1347383586989,
              29.59897504176725
            ],
            [
              -89.13463516017349,
              29.598976702230406
            ],
            [
              -89.13463706011856,
              29.599066890948052
            ],
            [
              -89.13453386149284,
              29.59906855133711
            ],
            [
              -89.1345452607947,
              29.599609683651263
            ],
            [
              -89.13444206161023,
              29.599611343996504
            ],
            [
              -89.1344458612633,
              29.599791721435967
            ],
            [
              -89.1343426618868,
              29.599793381713162
            ],
            [
              -89.13434456163462,
              29.59988357043694
            ],
            [
              -89.13424136215781,
              29.59988523064003
            ],
            [
              -89.13424516149601,
              29.600065608095687
            ],
            [
              -89.13414196182717,
              29.600067268230745
            ],
            [
              -89.13414576101655,
              29.60024764569315
            ],
            [
              -89.1340425611557,
              29.60024930576016
            ],
            [
              -89.1340463601963,
              29.60042968322933
            ],
            [
              -89.13394316014342,
              29.600431343228284
            ],
            [
              -89.13394505958499,
              29.60052153196692
            ],
            [
              -89.13384185943178,
              29.600523191891774
            ],
            [
              -89.1338437587903,
              29.600613380635124
            ],
            [
              -89.13374055853677,
              29.600615040485863
            ],
            [
              -89.13375575298257,
              29.60133655043295
            ],
            [
              -89.13365255198684,
              29.601338210251964
            ],
            [
              -89.13365824977154,
              29.601608776478205
            ],
            [
              -89.1335550484921,
              29.601610436235227
            ],
            [
              -89.13355884687505,
              29.601790813724808
            ],
            [
              -89.13345564540357,
              29.60179247341376
            ],
            [
              -89.1334594436377,
              29.601972850910098
            ],
            [
              -89.13335624197418,
              29.601974510530994
            ],
            [
              -89.13335814101251,
              29.60206469928322
            ],
            [
              -89.13325493924867,
              29.60206635883001
            ],
            [
              -89.13325873716785,
              29.602246736342526
            ],
            [
              -89.13315553521197,
              29.602248395821263
            ],
            [
              -89.13316123188046,
              29.602518962098173
            ],
            [
              -89.13305802964085,
              29.602520621514895
            ],
            [
              -89.13306182727963,
              29.602700999038248
            ],
            [
              -89.13295862484799,
              29.602702658386914
            ],
            [
              -89.13296242233793,
              29.60288303591702
            ],
            [
              -89.13285921971425,
              29.602884695197623
            ],
            [
              -89.13286491573886,
              29.603155261500905
            ],
            [
              -89.13276171283142,
              29.603156920719496
            ],
            [
              -89.13276551004095,
              29.603337298260428
            ],
            [
              -89.13266230694148,
              29.603338957410955
            ],
            [
              -89.13266420546749,
              29.603429146185462
            ],
            [
              -89.13256100226769,
              29.603430805261873
            ],
            [
              -89.13256479916224,
              29.603611182818984
            ],
            [
              -89.13246159577037,
              29.603612841827328
            ],
            [
              -89.1324634941389,
              29.60370303060993
            ],
            [
              -89.13236029064669,
              29.603704689544152
            ],
            [
              -89.13236598552899,
              29.603975255902075
            ],
            [
              -89.13226278175303,
              29.60397691477428
            ],
            [
              -89.1322646799727,
              29.604067103563636
            ],
            [
              -89.1321614760964,
              29.604068762361713
            ],
            [
              -89.13216527237824,
              29.604249139948493
            ],
            [
              -89.13206206830988,
              29.604250798678514
            ],
            [
              -89.13207725304902,
              29.604972309020543
            ],
            [
              -89.13197404823836,
              29.604973967718777
            ],
            [
              -89.1319778443261,
              29.605154345303003
            ],
            [
              -89.13187463932339,
              29.605156003933153
            ],
            [
              -89.13187843526222,
              29.60533638152414
            ],
            [
              -89.13177523006745,
              29.605338040086227
            ],
            [
              -89.13178282168192,
              29.605698795276314
            ],
            [
              -89.13167961611165,
              29.60570045378241
            ],
            [
              -89.13169100324217,
              29.606241586563726
            ],
            [
              -89.13158779711296,
              29.60624324502594
            ],
            [
              -89.13159159270877,
              29.606423622621115
            ],
            [
              -89.13148838638752,
              29.606425281015238
            ],
            [
              -89.13149218183443,
              29.606605658617152
            ],
            [
              -89.1313889753211,
              29.606607316943204
            ],
            [
              -89.13139277061913,
              29.606787694551855
            ],
            [
              -89.13128956391371,
              29.606789352809812
            ],
            [
              -89.1313161306828,
              29.608051996005273
            ],
            [
              -89.13121292268467,
              29.608053654267707
            ],
            [
              -89.13122620606174,
              29.608684975809464
            ],
            [
              -89.13112299741286,
              29.60868663403404
            ],
            [
              -89.13112679255772,
              29.60886701161745
            ],
            [
              -89.13102358371674,
              29.608868669773937
            ],
            [
              -89.13102737871267,
              29.609049047364095
            ],
            [
              -89.13092416967962,
              29.609050705452486
            ],
            [
              -89.13092796452662,
              29.609231083049394
            ]
          ]
        ]
      },
      "properties": {
        "incident_id": "SP-012",
        "type": "AI-detected-slick",
        "source": "Sentinel-1 SAR",
        "method": "U-Net segmentation + radiometric filtering"
      }
    },
    {
      "type": "Feature",
      "geometry": {
        "type": "Polygon",
        "coordinates": [
          [
            [
              -89.13613861138353,
              29.58704355457955
            ],
            [
              -89.13551949352185,
              29.58705351905202
            ],
            [
              -89.13551759371843,
              29.586963330223117
            ],
            [
              -89.13541440746951,
              29.58696499068207
            ],
            [
              -89.13541250776636,
              29.58687480184577
            ],
            [
              -89.13530932160043,
              29.586876462218562
            ],
            [
              -89.13530742199754,
              29.586786273374877
            ],
            [
              -89.13520423591459,
              29.586787933661498
            ],
            [
              -89.13520233641198,
              29.586697744810415
            ],
            [
              -89.135099150412,
              29.586699405010865
            ],
            [
              -89.13509535161596,
              29.586519027292567
            ],
            [
              -89.13499216579059,
              29.586520687400785
            ],
            [
              -89.13499026649717,
              29.58643049853359
            ],
            [
              -89.13488708075478,
              29.58643215855565
            ],
            [
              -89.1348566947013,
              29.584989136401603
            ],
            [
              -89.13495987897775,
              29.58498747647643
            ],
            [
              -89.13495228244362,
              29.58462672090866
            ],
            [
              -89.13505546634495,
              29.584625060927614
            ],
            [
              -89.1350022919127,
              29.582099771523737
            ],
            [
              -89.13489911057643,
              29.58210143133522
            ],
            [
              -89.13489531284517,
              29.58192105346843
            ],
            [
              -89.13479213168348,
              29.581922713187712
            ],
            [
              -89.13478833417001,
              29.581742335303474
            ],
            [
              -89.13468515318287,
              29.581743994930537
            ],
            [
              -89.13467945725226,
              29.581473428075984
            ],
            [
              -89.13478263796459,
              29.58147176846707
            ],
            [
              -89.13476554981497,
              29.580660067885695
            ],
            [
              -89.13497190956491,
              29.580656748536587
            ],
            [
              -89.13496431432365,
              29.580295992736303
            ],
            [
              -89.13506749381926,
              29.580294332965842
            ],
            [
              -89.13506369606729,
              29.580113955069802
            ],
            [
              -89.13516687537108,
              29.580112295231352
            ],
            [
              -89.13515927960445,
              29.579751539447443
            ],
            [
              -89.13526245853322,
              29.579749879553123
            ],
            [
              -89.13524156988046,
              29.578757801103695
            ],
            [
              -89.1353447477931,
              29.578756141195914
            ],
            [
              -89.13533905079453,
              29.578485574336156
            ],
            [
              -89.13544222842374,
              29.578483914366448
            ],
            [
              -89.1354365312282,
              29.578213347512836
            ],
            [
              -89.13553970857402,
              29.578211687481218
            ],
            [
              -89.13553211206793,
              29.57785093168191
            ],
            [
              -89.13563528903877,
              29.577849271594438
            ],
            [
              -89.13562959147522,
              29.577578704749097
            ],
            [
              -89.13573276816267,
              29.577577044599714
            ],
            [
              -89.13572707040215,
              29.577306477760498
            ],
            [
              -89.13583024680621,
              29.5773048175492
            ],
            [
              -89.13582454884875,
              29.577034250716135
            ],
            [
              -89.1359277249694,
              29.57703259044294
            ],
            [
              -89.135922026815,
              29.576762023616013
            ],
            [
              -89.13602520265228,
              29.5767603632809
            ],
            [
              -89.13601950430095,
              29.576489796460123
            ],
            [
              -89.13612267985485,
              29.576488136063105
            ],
            [
              -89.13611698130657,
              29.576217569248467
            ],
            [
              -89.1362201565771,
              29.576215908789546
            ],
            [
              -89.13620875916453,
              29.57567477516051
            ],
            [
              -89.13631193387695,
              29.575673114657878
            ],
            [
              -89.13630813462545,
              29.57549273678295
            ],
            [
              -89.13641130914608,
              29.575491076212355
            ],
            [
              -89.13640750974601,
              29.575310698344204
            ],
            [
              -89.13651068407484,
              29.575309037705658
            ],
            [
              -89.13650688452621,
              29.575128659844275
            ],
            [
              -89.13661005866327,
              29.57512699913777
            ],
            [
              -89.13660435913044,
              29.574856432353844
            ],
            [
              -89.13670753298415,
              29.574854771585443
            ],
            [
              -89.13669233387786,
              29.574133260151307
            ],
            [
              -89.13679550699037,
              29.574131599351322
            ],
            [
              -89.1367765079701,
              29.573229709998923
            ],
            [
              -89.13687968015829,
              29.57322804917947
            ],
            [
              -89.13687208042604,
              29.57286729342531
            ],
            [
              -89.13697525223937,
              29.572865632550023
            ],
            [
              -89.136971452242,
              29.572685254677044
            ],
            [
              -89.13707462386354,
              29.57268359373382
            ],
            [
              -89.13706512356367,
              29.572232649058275
            ],
            [
              -89.13716829471878,
              29.572230988065296
            ],
            [
              -89.13715689409497,
              29.5716898544469
            ],
            [
              -89.13726006469209,
              29.571688193410218
            ],
            [
              -89.13724486361221,
              29.57096668189265
            ],
            [
              -89.13734803346824,
              29.570965020824392
            ],
            [
              -89.13734043276965,
              29.570604265057774
            ],
            [
              -89.13744360225083,
              29.570602603933704
            ],
            [
              -89.13743980177033,
              29.57042222605449
            ],
            [
              -89.13754297105974,
              29.57042056486249
            ],
            [
              -89.13753917043074,
              29.570240186990052
            ],
            [
              -89.13764233952843,
              29.570238525730108
            ],
            [
              -89.13763853875092,
              29.570058147864465
            ],
            [
              -89.13774170765686,
              29.57005648653659
            ],
            [
              -89.13773030498264,
              29.56951535294391
            ],
            [
              -89.13783347333066,
              29.56951369157236
            ],
            [
              -89.13782967232537,
              29.569333313709553
            ],
            [
              -89.13793284048161,
              29.569331652270083
            ],
            [
              -89.1379309399004,
              29.569241463342742
            ],
            [
              -89.13803410795647,
              29.569239801829266
            ],
            [
              -89.13803220729237,
              29.569149612906653
            ],
            [
              -89.13813537524825,
              29.569147951319195
            ],
            [
              -89.13813347450125,
              29.5690577624013
            ],
            [
              -89.13823664235692,
              29.56905610073986
            ],
            [
              -89.13823474152703,
              29.56896591182669
            ],
            [
              -89.13833790928253,
              29.568964250091256
            ],
            [
              -89.13833600836973,
              29.56887406118281
            ],
            [
              -89.13843917602503,
              29.568872399373387
            ],
            [
              -89.13843727502935,
              29.56878221046969
            ],
            [
              -89.13854044258446,
              29.56878054858626
            ],
            [
              -89.1385385415059,
              29.568690359687285
            ],
            [
              -89.13864170896079,
              29.568688697729886
            ],
            [
              -89.13863790664655,
              29.56850831994004
            ],
            [
              -89.13874107390971,
              29.568506657914707
            ],
            [
              -89.13873346901889,
              29.56814590234326
            ],
            [
              -89.13883663590724,
              29.568144240262143
            ],
            [
              -89.13883093205538,
              29.567873673587698
            ],
            [
              -89.13893409866047,
              29.56787201144473
            ],
            [
              -89.13893029595276,
              29.567691633667216
            ],
            [
              -89.13903346236611,
              29.56768997145633
            ],
            [
              -89.13902965950994,
              29.56750959368561
            ],
            [
              -89.13913282573158,
              29.567507931406794
            ],
            [
              -89.13912712123762,
              29.56723736475889
            ],
            [
              -89.13923028717599,
              29.56723570241823
            ],
            [
              -89.13922077940148,
              29.566784758008627
            ],
            [
              -89.13932394487355,
              29.566783095618252
            ],
            [
              -89.13932014164126,
              29.566602717857187
            ],
            [
              -89.1394233069216,
              29.56660105539891
            ],
            [
              -89.13942140522691,
              29.56651086652243
            ],
            [
              -89.13952457040705,
              29.566509203990172
            ],
            [
              -89.13952076686058,
              29.566328826245364
            ],
            [
              -89.13972709682878,
              29.56632550096497
            ],
            [
              -89.13972519488549,
              29.5662353121027
            ],
            [
              -89.14003468949826,
              29.566230323599992
            ],
            [
              -89.14003659171615,
              29.566320512444058
            ],
            [
              -89.1401397566613,
              29.56631884944368
            ],
            [
              -89.14014356130615,
              29.56649922711566
            ],
            [
              -89.14024672642569,
              29.56649756402308
            ],
            [
              -89.14025433618538,
              29.566858319326755
            ],
            [
              -89.14035750166241,
              29.566856656129854
            ],
            [
              -89.14037272232972,
              29.56757816662446
            ],
            [
              -89.14026955612043,
              29.56757982986992
            ],
            [
              -89.14027526373896,
              29.567850396301537
            ],
            [
              -89.14017209724639,
              29.567852059485155
            ],
            [
              -89.14017780466826,
              29.56812262592296
            ],
            [
              -89.14007463789241,
              29.568124289044743
            ],
            [
              -89.14007844270053,
              29.56830466667539
            ],
            [
              -89.13997527573298,
              29.56830632972926
            ],
            [
              -89.13997717805849,
              29.568396518548646
            ],
            [
              -89.13987401099072,
              29.56839818152853
            ],
            [
              -89.13987781548462,
              29.568578559175435
            ],
            [
              -89.13967148095698,
              29.56858188491933
            ],
            [
              -89.13967528511935,
              29.56876226258516
            ],
            [
              -89.13957211765945,
              29.568763925349153
            ],
            [
              -89.13957401966209,
              29.568854114186134
            ],
            [
              -89.13947085210201,
              29.56885577687615
            ],
            [
              -89.13947845983293,
              29.569216532234957
            ],
            [
              -89.13937529189802,
              29.569218194869194
            ],
            [
              -89.13938480129873,
              29.569669139067955
            ],
            [
              -89.13928163289742,
              29.56967080165247
            ],
            [
              -89.13929874954016,
              29.570482501180614
            ],
            [
              -89.13919558030628,
              29.570484163739675
            ],
            [
              -89.13920128573501,
              29.570754730243188
            ],
            [
              -89.13909811621782,
              29.570756392740385
            ],
            [
              -89.13910572321113,
              29.571117148083957
            ],
            [
              -89.13900255331907,
              29.571118810525366
            ],
            [
              -89.13902347225765,
              29.572110887676594
            ],
            [
              -89.13892030134983,
              29.57211255010467
            ],
            [
              -89.13892790813001,
              29.572473305416537
            ],
            [
              -89.13882473684733,
              29.572474967788825
            ],
            [
              -89.13883804840496,
              29.57310628957557
            ],
            [
              -89.1387348764727,
              29.573107951910252
            ],
            [
              -89.13874248290122,
              29.57346870721182
            ],
            [
              -89.13863931059406,
              29.573470369490693
            ],
            [
              -89.13864121213125,
              29.573560558318796
            ],
            [
              -89.13874438453,
              29.573558896033862
            ],
            [
              -89.13874628616742,
              29.573649084854573
            ],
            [
              -89.13864311367712,
              29.57365074714558
            ],
            [
              -89.13865262153624,
              29.5741016912594
            ],
            [
              -89.13854944857945,
              29.57410335350067
            ],
            [
              -89.13855515312409,
              29.574373919971105
            ],
            [
              -89.13845197988395,
              29.574375582150495
            ],
            [
              -89.13845578277383,
              29.574555959802897
            ],
            [
              -89.13835260934191,
              29.57455762191434
            ],
            [
              -89.13835641208328,
              29.57473799957354
            ],
            [
              -89.13825323845955,
              29.574739661617034
            ],
            [
              -89.1382570410524,
              29.574920039283008
            ],
            [
              -89.13815386723688,
              29.574921701258575
            ],
            [
              -89.13816147216014,
              29.57528245659872
            ],
            [
              -89.13805829796968,
              29.575284118518454
            ],
            [
              -89.13806400147826,
              29.575554685027722
            ],
            [
              -89.13796082700443,
              29.575556346885584
            ],
            [
              -89.1379646292036,
              29.575736724563868
            ],
            [
              -89.13786145453797,
              29.575738386353773
            ],
            [
              -89.13786715762689,
              29.57600895287937
            ],
            [
              -89.13776398267788,
              29.576010614607394
            ],
            [
              -89.13777538853986,
              29.576551747658847
            ],
            [
              -89.13767221303276,
              29.576553409343177
            ],
            [
              -89.13767981674746,
              29.576914164708334
            ],
            [
              -89.13757664086539,
              29.576915826336826
            ],
            [
              -89.13759374890537,
              29.577727525884743
            ],
            [
              -89.13749057219042,
              29.577729187487733
            ],
            [
              -89.13749437388908,
              29.57790956516246
            ],
            [
              -89.1373911969823,
              29.57791122669749
            ],
            [
              -89.1373949985324,
              29.578091604379
            ],
            [
              -89.13729182143379,
              29.578093265846068
            ],
            [
              -89.13729752354907,
              29.578363832376485
            ],
            [
              -89.13719434616705,
              29.578365493781657
            ],
            [
              -89.13719814743732,
              29.578545871474045
            ],
            [
              -89.1370949698635,
              29.57854753281125
            ],
            [
              -89.137100671559,
              29.578818099357985
            ],
            [
              -89.13699749370176,
              29.578819760633287
            ],
            [
              -89.13700319520032,
              29.57909032718617
            ],
            [
              -89.13690001705966,
              29.579091988399572
            ],
            [
              -89.13690381791879,
              29.57927236610694
            ],
            [
              -89.1368006395863,
              29.57927402725238
            ],
            [
              -89.13680444029683,
              29.579454404966505
            ],
            [
              -89.13670126177252,
              29.579456066043985
            ],
            [
              -89.13670696262841,
              29.579726632623327
            ],
            [
              -89.13660378382066,
              29.579728293638887
            ],
            [
              -89.13664369006776,
              29.58162225948465
            ],
            [
              -89.13654050932784,
              29.581623920547386
            ],
            [
              -89.13655381161654,
              29.582255242407346
            ],
            [
              -89.13665699299769,
              29.582253581302183
            ],
            [
              -89.13666269438309,
              29.582524147775363
            ],
            [
              -89.13676587603041,
              29.582522486571918
            ],
            [
              -89.13677727958441,
              29.583063619445802
            ],
            [
              -89.13667409738744,
              29.5830652806856
            ],
            [
              -89.13668740128607,
              29.583696602353378
            ],
            [
              -89.1365842184392,
              29.5836982635555
            ],
            [
              -89.13660132324993,
              29.584509962800887
            ],
            [
              -89.1364981395699,
              29.584511623977455
            ],
            [
              -89.13650574156642,
              29.58487237918711
            ],
            [
              -89.13640255751127,
              29.584874040307813
            ],
            [
              -89.13641966168485,
              29.585685739505816
            ],
            [
              -89.13652284656456,
              29.58568407833058
            ],
            [
              -89.13653234964404,
              29.58613502225237
            ],
            [
              -89.13663553497322,
              29.58613336096673
            ],
            [
              -89.13664123719957,
              29.58640392728557
            ],
            [
              -89.13653805159552,
              29.586405588589404
            ],
            [
              -89.13654375362485,
              29.586676154914404
            ],
            [
              -89.13644056773728,
              29.5866778161563
            ],
            [
              -89.1364424683394,
              29.586768004934672
            ],
            [
              -89.13633928235156,
              29.586769666102533
            ],
            [
              -89.13634308339847,
              29.5869500436674
            ],
            [
              -89.13613671103036,
              29.586953365787004
            ],
            [
              -89.13613861138353,
              29.58704355457955
            ]
          ]
        ]
      },
      "properties": {
        "incident_id": "SP-012",
        "type": "AI-detected-slick",
        "source": "Sentinel-1 SAR",
        "method": "U-Net segmentation + radiometric filtering"
      }
    }
  ]
}