{
  "type": "FeatureCollection",
  "name": "SP-014_AI_Spill_Footprint",
  "features": [
    {
      "type": "Feature",
      "geometry": {
        "type": "Polygon",
        "coordinates": [
          [
            [
              -89.0556893536252,
              29.082401998758037
            ],
            [
              -89.0551759300847,
              29.08240986637569
            ],
            [
              -89.05517413900054,
              29.082319666081286
            ],
            [
              -89.05496876970568,
              29.082322812567256
            ],
            [
              -89.05496518791931,
              29.082142411951303
            ],
            [
              -89.05486250343826,
              29.08214398506493
            ],
            [
              -89.05484996806923,
              29.08151258282704
            ],
            [
              -89.05495265192495,
              29.081511009754028
            ],
            [
              -89.05495086110137,
              29.081420809434885
            ],
            [
              -89.05505354485956,
              29.081419236289175
            ],
            [
              -89.05505175395484,
              29.08132903597451
            ],
            [
              -89.05525712126799,
              29.081325889459205
            ],
            [
              -89.0552553301928,
              29.081235689154823
            ],
            [
              -89.05535801374775,
              29.081234115785236
            ],
            [
              -89.05535622259141,
              29.081143915485352
            ],
            [
              -89.0555615894981,
              29.08114076852229
            ],
            [
              -89.0555597981713,
              29.081050568232698
            ],
            [
              -89.05566248152302,
              29.081048994639218
            ],
            [
              -89.05566069011508,
              29.08095879435411
            ],
            [
              -89.05576337336927,
              29.080957220687957
            ],
            [
              -89.05576158188019,
              29.080867020407347
            ],
            [
              -89.05586426503687,
              29.080865446668493
            ],
            [
              -89.05586068190462,
              29.080685046114954
            ],
            [
              -89.05596336487446,
              29.080683472309218
            ],
            [
              -89.0559615732313,
              29.08059327203626
            ],
            [
              -89.05606425610361,
              29.080591698157832
            ],
            [
              -89.05606067266321,
              29.080411297619623
            ],
            [
              -89.05616335534867,
              29.080409723674315
            ],
            [
              -89.0561597717624,
              29.080229323142447
            ],
            [
              -89.056262454261,
              29.08022774913026
            ],
            [
              -89.05626066239081,
              29.080137548868155
            ],
            [
              -89.05636334479192,
              29.08013597478327
            ],
            [
              -89.05636155284061,
              29.080045774525672
            ],
            [
              -89.05646423514419,
              29.080044200368107
            ],
            [
              -89.05646244311176,
              29.079954000114995
            ],
            [
              -89.0565651253178,
              29.079952425884755
            ],
            [
              -89.05656333320424,
              29.07986222563613
            ],
            [
              -89.05666601531277,
              29.079860651333203
            ],
            [
              -89.05666422311808,
              29.079770451089068
            ],
            [
              -89.0567669051291,
              29.079768876713455
            ],
            [
              -89.05676511285326,
              29.07967867647381
            ],
            [
              -89.05686779476676,
              29.079677102025514
            ],
            [
              -89.0568660024098,
              29.079586901790382
            ],
            [
              -89.05696868422578,
              29.079585327269392
            ],
            [
              -89.05696689178771,
              29.079495127038737
            ],
            [
              -89.05717225521641,
              29.079491977772935
            ],
            [
              -89.05717046260789,
              29.079401777552576
            ],
            [
              -89.05737582582516,
              29.079398627984425
            ],
            [
              -89.0573740330462,
              29.079308427774386
            ],
            [
              -89.05757939605205,
              29.079305277903895
            ],
            [
              -89.05757760310263,
              29.079215077704134
            ],
            [
              -89.05778296589703,
              29.079211927531315
            ],
            [
              -89.05778117277717,
              29.079121727341885
            ],
            [
              -89.05788385407276,
              29.079120152143535
            ],
            [
              -89.05788206087176,
              29.079029951958603
            ],
            [
              -89.05808742325969,
              29.079026801338095
            ],
            [
              -89.05808562988827,
              29.078936601163463
            ],
            [
              -89.05829099206476,
              29.078933450240616
            ],
            [
              -89.05828919852289,
              29.078843250076286
            ],
            [
              -89.0583918795095,
              29.078841674502943
            ],
            [
              -89.05839008588651,
              29.07875147434311
            ],
            [
              -89.05849276677561,
              29.078749898697094
            ],
            [
              -89.05849097307153,
              29.078659698541763
            ],
            [
              -89.0585936538631,
              29.078658122823065
            ],
            [
              -89.05859186007788,
              29.07856792267223
            ],
            [
              -89.05869454077194,
              29.078566346880862
            ],
            [
              -89.0586927469056,
              29.078476146734523
            ],
            [
              -89.05879542750215,
              29.078474570870497
            ],
            [
              -89.0587936335547,
              29.07838437072865
            ],
            [
              -89.05889631405371,
              29.078382794791946
            ],
            [
              -89.05889452002516,
              29.078292594654595
            ],
            [
              -89.05899720042666,
              29.078291018645213
            ],
            [
              -89.05899540631698,
              29.07820081851236
            ],
            [
              -89.05920076691672,
              29.07819766626977
            ],
            [
              -89.05919897263662,
              29.078107466147248
            ],
            [
              -89.0594043330249,
              29.078104313602335
            ],
            [
              -89.05940253857439,
              29.078014113490113
            ],
            [
              -89.05971057882732,
              29.078009384101563
            ],
            [
              -89.05970878411705,
              29.077919184005477
            ],
            [
              -89.05981146409565,
              29.07791760739148
            ],
            [
              -89.05980966930427,
              29.077827407299893
            ],
            [
              -89.06001502905819,
              29.07782425384807
            ],
            [
              -89.06001323409639,
              29.077734053766786
            ],
            [
              -89.06011591387173,
              29.07773247692897
            ],
            [
              -89.06011411882884,
              29.077642276852202
            ],
            [
              -89.06021679850663,
              29.077640699941714
            ],
            [
              -89.06021500338264,
              29.077550499869453
            ],
            [
              -89.06031768296293,
              29.077548922886294
            ],
            [
              -89.06031588775781,
              29.077458722818527
            ],
            [
              -89.06052124671514,
              29.077455568628405
            ],
            [
              -89.06051945133962,
              29.07736536857097
            ],
            [
              -89.06072481008546,
              29.077362214078555
            ],
            [
              -89.06072301453953,
              29.077272014031422
            ],
            [
              -89.06082569381083,
              29.077270436673317
            ],
            [
              -89.06082389818378,
              29.077180236630696
            ],
            [
              -89.06113193568048,
              29.07717550410293
            ],
            [
              -89.06113013979372,
              29.077085304076444
            ],
            [
              -89.06133549790515,
              29.077082148677164
            ],
            [
              -89.061333701848,
              29.076991948661025
            ],
            [
              -89.06143638080208,
              29.07699037084948
            ],
            [
              -89.06143458466383,
              29.07690017083783
            ],
            [
              -89.06163994236873,
              29.076897014990944
            ],
            [
              -89.06163814606008,
              29.076806814989627
            ],
            [
              -89.0617408248109,
              29.07680523695428
            ],
            [
              -89.06173902842113,
              29.076715036957467
            ],
            [
              -89.0622524216055,
              29.076707145632668
            ],
            [
              -89.06225960900004,
              29.077067945495617
            ],
            [
              -89.06215693002237,
              29.077069523940818
            ],
            [
              -89.06216052359031,
              29.07724992387604
            ],
            [
              -89.0620578444258,
              29.077251502254416
            ],
            [
              -89.06205964113279,
              29.077341702225876
            ],
            [
              -89.06195696187073,
              29.07734328053159
            ],
            [
              -89.06195875849663,
              29.07743348050756
            ],
            [
              -89.06185607913706,
              29.077435058740612
            ],
            [
              -89.06185967223486,
              29.077615458700247
            ],
            [
              -89.06175699268844,
              29.077617036866453
            ],
            [
              -89.06175878916036,
              29.077707236850127
            ],
            [
              -89.0616561095164,
              29.077708814943666
            ],
            [
              -89.06165790590723,
              29.077799014931855
            ],
            [
              -89.06155522616575,
              29.077800592952745
            ],
            [
              -89.06155702247547,
              29.077890792945425
            ],
            [
              -89.06145434263647,
              29.077892370893643
            ],
            [
              -89.0614561388651,
              29.07798257089083
            ],
            [
              -89.06135345892856,
              29.07798414876639
            ],
            [
              -89.06135525507608,
              29.078074348768084
            ],
            [
              -89.06114989499974,
              29.078077504295393
            ],
            [
              -89.06115169097684,
              29.07816770430741
            ],
            [
              -89.06094633068903,
              29.078170859532424
            ],
            [
              -89.06094812649572,
              29.078261059554766
            ],
            [
              -89.06084544625017,
              29.07826263705536
            ],
            [
              -89.06084724197575,
              29.07835283708221
            ],
            [
              -89.06074456163267,
              29.078354414510144
            ],
            [
              -89.06074815292982,
              29.07853481457152
            ],
            [
              -89.06064547239991,
              29.0785363919326
            ],
            [
              -89.06064726797149,
              29.078626591967144
            ],
            [
              -89.06054458734404,
              29.078628169255555
            ],
            [
              -89.0605463828345,
              29.078718369294585
            ],
            [
              -89.06044370210954,
              29.07871994651034
            ],
            [
              -89.0604454975189,
              29.078810146553877
            ],
            [
              -89.06034281669639,
              29.07881172369696
            ],
            [
              -89.06034461202464,
              29.078901923745008
            ],
            [
              -89.06024193110461,
              29.07890350081541
            ],
            [
              -89.06024552160711,
              29.079083900919183
            ],
            [
              -89.06014284050023,
              29.079085477922746
            ],
            [
              -89.06014643085692,
              29.079265878032906
            ],
            [
              -89.06004374956319,
              29.079267454969607
            ],
            [
              -89.06004913489183,
              29.079538055142425
            ],
            [
              -89.05994645332193,
              29.079539632018097
            ],
            [
              -89.05994824835855,
              29.07962983207888
            ],
            [
              -89.05984556669112,
              29.07963140888187
            ],
            [
              -89.05984736164665,
              29.079721608947168
            ],
            [
              -89.05974467988169,
              29.079723185677484
            ],
            [
              -89.0597464747561,
              29.079813385747286
            ],
            [
              -89.0596437928936,
              29.079814962404917
            ],
            [
              -89.05964558768689,
              29.079905162479218
            ],
            [
              -89.05954290572687,
              29.07990673906418
            ],
            [
              -89.05954470043905,
              29.07999693914298
            ],
            [
              -89.05933933631573,
              29.080000092089065
            ],
            [
              -89.05934113085748,
              29.080090292178173
            ],
            [
              -89.05913576652267,
              29.08009344482193
            ],
            [
              -89.05913935527347,
              29.08027384501947
            ],
            [
              -89.05903667291511,
              29.080275421235235
            ],
            [
              -89.05904205583485,
              29.080546021539117
            ],
            [
              -89.05883669055757,
              29.080549173770056
            ],
            [
              -89.0588384847019,
              29.080639373880373
            ],
            [
              -89.05863311921314,
              29.080642525808955
            ],
            [
              -89.05863491318703,
              29.08073272592956
            ],
            [
              -89.05842954748681,
              29.080735877555803
            ],
            [
              -89.05843134129023,
              29.080826077686723
            ],
            [
              -89.0581232924104,
              29.080830804554815
            ],
            [
              -89.05812149887494,
              29.08074060440648
            ],
            [
              -89.05750540142982,
              29.080750055988492
            ],
            [
              -89.0575143665092,
              29.081201056891402
            ],
            [
              -89.05761704988386,
              29.081199481794915
            ],
            [
              -89.05761884301367,
              29.08128968196575
            ],
            [
              -89.05751615954966,
              29.08129125706804
            ],
            [
              -89.05751795259833,
              29.08138145724336
            ],
            [
              -89.0574152690368,
              29.08138303227297
            ],
            [
              -89.05741706200433,
              29.081473232452787
            ],
            [
              -89.05731437834528,
              29.081474807409702
            ],
            [
              -89.05731617123169,
              29.081565007594033
            ],
            [
              -89.0572134874751,
              29.081566582478267
            ],
            [
              -89.05721528028037,
              29.081656782667068
            ],
            [
              -89.05711259642625,
              29.08165835747861
            ],
            [
              -89.05711438915039,
              29.081748557671915
            ],
            [
              -89.0567036532946,
              29.08175485615636
            ],
            [
              -89.0567054456696,
              29.08184505637158
            ],
            [
              -89.05619202521879,
              29.08185292774001
            ],
            [
              -89.05619381715535,
              29.08194312798294
            ],
            [
              -89.05609113295125,
              29.081944702026934
            ],
            [
              -89.05609292480663,
              29.08203490227436
            ],
            [
              -89.05599024050504,
              29.082036476245662
            ],
            [
              -89.05599203227929,
              29.082126676497584
            ],
            [
              -89.05588934788015,
              29.08212825039619
            ],
            [
              -89.05589113957326,
              29.082218450652604
            ],
            [
              -89.05578845507661,
              29.08222002447852
            ],
            [
              -89.05579024668857,
              29.08231022473941
            ],
            [
              -89.05568756209438,
              29.082311798492643
            ],
            [
              -89.0556893536252,
              29.082401998758037
            ]
          ]
        ]
      },
      "properties": {
        "incident_id": "SP-014",
        "type": "AI-detected-slick",
        "source": "Sentinel-1 SAR",
        "method": "U-Net segmentation + radiometric filtering"
      }
    },
    {
      "type": "Feature",
      "geometry": {
        "type": "Polygon",
        "coordinates": [
          [
            [
              -88.96805915946874,
              29.038510862735233
            ],
            [
              -88.96764857242356,
              29.038516880492143
            ],
            [
              -88.96764686067671,
              29.038426674749413
            ],
            [
              -88.96713362713982,
              29.038434195154395
            ],
            [
              -88.96713191584658,
              29.038343989382586
            ],
            [
              -88.96682397589795,
              29.038348500668455
            ],
            [
              -88.96682226488001,
              29.038258294878684
            ],
            [
              -88.9666169717201,
              29.03826130199963
            ],
            [
              -88.9666152608883,
              29.038171096197466
            ],
            [
              -88.96651261438576,
              29.038172599634827
            ],
            [
              -88.96651090365094,
              29.038082393825803
            ],
            [
              -88.96640825722973,
              29.038083897179245
            ],
            [
              -88.96640654659188,
              29.03799369136337
            ],
            [
              -88.966303900252,
              29.037995194632877
            ],
            [
              -88.96630218971116,
              29.03790498881015
            ],
            [
              -88.96619954345259,
              29.037906491995752
            ],
            [
              -88.96619612257265,
              29.03772608033527
            ],
            [
              -88.96609347648459,
              29.037727583431398
            ],
            [
              -88.96608834549083,
              29.037456965914245
            ],
            [
              -88.9659856996624,
              29.037458468915364
            ],
            [
              -88.96597030790603,
              29.03664661624354
            ],
            [
              -88.96607295293211,
              29.036645113292366
            ],
            [
              -88.96606440178445,
              29.036194084012344
            ],
            [
              -88.96616704635696,
              29.03619258101056
            ],
            [
              -88.96616362577439,
              29.036012169300513
            ],
            [
              -88.96626627016079,
              29.036010666231462
            ],
            [
              -88.96626455979208,
              29.035920460380037
            ],
            [
              -88.96636720408151,
              29.035918957238163
            ],
            [
              -88.96636549363149,
              29.03582875139098
            ],
            [
              -88.96728929108185,
              29.035815219637698
            ],
            [
              -88.96729100233418,
              29.035905425434922
            ],
            [
              -88.96739364654533,
              29.035903921509405
            ],
            [
              -88.96739535789463,
              29.035994127299773
            ],
            [
              -88.96760064647175,
              29.035991119202535
            ],
            [
              -88.96760235800717,
              29.03608132498049
            ],
            [
              -88.96770500237312,
              29.036079820808773
            ],
            [
              -88.96770671400552,
              29.036170026579878
            ],
            [
              -88.9678093584528,
              29.036168522324232
            ],
            [
              -88.96781107018217,
              29.036258728088477
            ],
            [
              -88.96791371471076,
              29.036257223748915
            ],
            [
              -88.96791542653712,
              29.0363474295063
            ],
            [
              -88.96801807114701,
              29.036345925082816
            ],
            [
              -88.96801978307035,
              29.03643613083333
            ],
            [
              -88.96812242776157,
              29.03643462632594
            ],
            [
              -88.96812413978188,
              29.036524832069603
            ],
            [
              -88.9682267845544,
              29.036523327478278
            ],
            [
              -88.9682284966717,
              29.036613533215085
            ],
            [
              -88.96833114152555,
              29.036612028539842
            ],
            [
              -88.96833285373982,
              29.03670223426978
            ],
            [
              -88.96843549867498,
              29.03670072951062
            ],
            [
              -88.96843892330533,
              29.036881140955476
            ],
            [
              -88.96864421350875,
              29.03687813117982
            ],
            [
              -88.96864592601396,
              29.03696833688919
            ],
            [
              -88.96998031273108,
              29.036948765634367
            ],
            [
              -88.96997859906692,
              29.03685855999726
            ],
            [
              -88.9702865340076,
              29.036854041689704
            ],
            [
              -88.97028482008383,
              29.036763836067976
            ],
            [
              -88.97059275468649,
              29.036759317071795
            ],
            [
              -88.97059104050312,
              29.03666911146546
            ],
            [
              -88.97079633002072,
              29.03666609842063
            ],
            [
              -88.9707946156669,
              29.036575892824104
            ],
            [
              -88.97089726032479,
              29.036574386189695
            ],
            [
              -88.97089554588966,
              29.036484180597437
            ],
            [
              -88.9711008350036,
              29.03648116710466
            ],
            [
              -88.97109912039802,
              29.03639096152221
            ],
            [
              -88.9712017648541,
              29.03638945466383
            ],
            [
              -88.97120005016721,
              29.036299249085644
            ],
            [
              -88.97140533887752,
              29.03629623514493
            ],
            [
              -88.97140362402018,
              29.036206029576576
            ],
            [
              -88.97171155675935,
              29.036201508094447
            ],
            [
              -88.97170984164242,
              29.03611130254147
            ],
            [
              -88.97191512991769,
              29.03610828783937
            ],
            [
              -88.97191684521289,
              29.03619849338121
            ],
            [
              -88.97222477783434,
              29.03619397072362
            ],
            [
              -88.97222649340485,
              29.036284176247456
            ],
            [
              -88.97232913768543,
              29.036282668532632
            ],
            [
              -88.97233085335293,
              29.036372874049604
            ],
            [
              -88.97243349771483,
              29.03637136625084
            ],
            [
              -88.97244379241947,
              29.036912599291867
            ],
            [
              -88.97234114752268,
              29.03691410712402
            ],
            [
              -88.97234286324512,
              29.03700431263185
            ],
            [
              -88.97224021825133,
              29.037005820391208
            ],
            [
              -88.97224193389248,
              29.03709602590331
            ],
            [
              -88.97213928880169,
              29.03709753358987
            ],
            [
              -88.97214100436153,
              29.037187739106226
            ],
            [
              -88.97203835917375,
              29.03718924671999
            ],
            [
              -88.97204007465227,
              29.0372794522406
            ],
            [
              -88.9719374293675,
              29.03728095978156
            ],
            [
              -88.97193914476473,
              29.037371165306443
            ],
            [
              -88.97173385399334,
              29.037374180164377
            ],
            [
              -88.97173556922012,
              29.03746438569909
            ],
            [
              -88.97153027823903,
              29.037467400254673
            ],
            [
              -88.97153199329536,
              29.03755760579921
            ],
            [
              -88.97142934770389,
              29.037559112965017
            ],
            [
              -88.97143106267889,
              29.037649318513804
            ],
            [
              -88.97122577129413,
              29.037652332621438
            ],
            [
              -88.97122748609868,
              29.03774253818005
            ],
            [
              -88.97112484030538,
              29.03774404512188
            ],
            [
              -88.97112655502862,
              29.037834250684767
            ],
            [
              -88.97102390913832,
              29.03783575755378
            ],
            [
              -88.97102562378026,
              29.037925963120916
            ],
            [
              -88.97092297779297,
              29.037927469917122
            ],
            [
              -88.97092469235359,
              29.038017675488508
            ],
            [
              -88.9708220462693,
              29.038019182211915
            ],
            [
              -88.97082376074862,
              29.03810938778756
            ],
            [
              -88.97061846837818,
              29.03811240101038
            ],
            [
              -88.97062018268704,
              29.03820260659585
            ],
            [
              -88.97041489010692,
              29.03820561951631
            ],
            [
              -88.9704166042453,
              29.038295825111604
            ],
            [
              -88.97010866504885,
              29.03830034392119
            ],
            [
              -88.97011037892763,
              29.03839054953186
            ],
            [
              -88.96805744736525,
              29.03842065701473
            ],
            [
              -88.96805915946874,
              29.038510862735233
            ]
          ]
        ]
      },
      "properties": {
        "incident_id": "SP-014",
        "type": "AI-detected-slick",
        "source": "Sentinel-1 SAR",
        "method": "U-Net segmentation + radiometric filtering"
      }
    },
    {
      "type": "Feature",
      "geometry": {
        "type": "Polygon",
        "coordinates": [
          [
            [
              -88.9653356321829,
              29.03566336741852
            ],
            [
              -88.96451447916213,
              29.03567538395696
            ],
            [
              -88.96451277034016,
              29.035585178006006
            ],
            [
              -88.96430748218508,
              29.03558818134588
            ],
            [
              -88.96430577354923,
              29.03549797538253
            ],
            [
              -88.96410048554117,
              29.035500978397874
            ],
            [
              -88.96409877709142,
              29.035410772422136
            ],
            [
              -88.96389348923037,
              29.03541377511293
            ],
            [
              -88.96389178096673,
              29.03532356912481
            ],
            [
              -88.96368649325271,
              29.03532657149106
            ],
            [
              -88.96368478517518,
              29.03523636549054
            ],
            [
              -88.96347949760818,
              29.035239367532256
            ],
            [
              -88.96347778971673,
              29.035149161519346
            ],
            [
              -88.96337514601066,
              29.03515066241712
            ],
            [
              -88.96337343821618,
              29.035060456397375
            ],
            [
              -88.96327079459144,
              29.035061957211244
            ],
            [
              -88.96326737920421,
              29.034881545156754
            ],
            [
              -88.96316473574993,
              29.03488304588117
            ],
            [
              -88.96316302815717,
              29.034792839846435
            ],
            [
              -88.96306038478421,
              29.034794340486954
            ],
            [
              -88.96305867728842,
              29.03470413444536
            ],
            [
              -88.96295603399679,
              29.034705635001984
            ],
            [
              -88.96295432659794,
              29.034615428953547
            ],
            [
              -88.96285168338765,
              29.03461692942626
            ],
            [
              -88.96284997608575,
              29.03452672337099
            ],
            [
              -88.96264468982002,
              29.034529724070254
            ],
            [
              -88.96264298270421,
              29.0344395180026
            ],
            [
              -88.96254033964877,
              29.034441018229142
            ],
            [
              -88.9625386326299,
              29.034350812154646
            ],
            [
              -88.9624359896558,
              29.034352312297298
            ],
            [
              -88.96243257581978,
              29.034171900133302
            ],
            [
              -88.96232993301614,
              29.034173400186518
            ],
            [
              -88.96232481258811,
              29.033902781914133
            ],
            [
              -88.96222217004406,
              29.033904281872378
            ],
            [
              -88.96221704995372,
              29.033633663571646
            ],
            [
              -88.96211440766928,
              29.033635163434905
            ],
            [
              -88.96211099449303,
              29.033454751216834
            ],
            [
              -88.96200835237904,
              29.033456250990664
            ],
            [
              -88.96200323294065,
              29.03318563263714
            ],
            [
              -88.96190059108626,
              29.033187132315998
            ],
            [
              -88.96189035295505,
              29.03264589554054
            ],
            [
              -88.96178771162765,
              29.03264739510782
            ],
            [
              -88.9617860053889,
              29.032557188968475
            ],
            [
              -88.96168336414284,
              29.032558688451868
            ],
            [
              -88.96167995186703,
              29.032378276158195
            ],
            [
              -88.96157731079141,
              29.03237977555215
            ],
            [
              -88.96157560475434,
              29.03228956939783
            ],
            [
              -88.96147296376006,
              29.03229106870791
            ],
            [
              -88.96147125781992,
              29.032200862546727
            ],
            [
              -88.96136861690697,
              29.03220236177291
            ],
            [
              -88.96136691106376,
              29.03211215560491
            ],
            [
              -88.96126427023212,
              29.032113654747203
            ],
            [
              -88.96126256448586,
              29.032023448572357
            ],
            [
              -88.96115992373555,
              29.032024947630767
            ],
            [
              -88.96115651244469,
              29.03184453526607
            ],
            [
              -88.96105387186482,
              29.031846034235063
            ],
            [
              -88.96105216632024,
              29.03175582804523
            ],
            [
              -88.96094952582169,
              29.031757326930325
            ],
            [
              -88.96094611493416,
              29.031576914535687
            ],
            [
              -88.96084347460608,
              29.03157841333137
            ],
            [
              -88.9608383586007,
              29.03130779471302
            ],
            [
              -88.96073571853219,
              29.031309293413738
            ],
            [
              -88.96073060286439,
              29.031038674767068
            ],
            [
              -88.96083324266553,
              29.031037176082954
            ],
            [
              -88.9608298320811,
              29.030856763656377
            ],
            [
              -88.9609324716962,
              29.030855264904986
            ],
            [
              -88.96093076632656,
              29.03076505869527
            ],
            [
              -88.9610334058447,
              29.03076355987106
            ],
            [
              -88.96103170039376,
              29.03067335366559
            ],
            [
              -88.96123697922842,
              29.030670355793188
            ],
            [
              -88.96123527360702,
              29.030580149597476
            ],
            [
              -88.9615431915331,
              29.03057565221786
            ],
            [
              -88.96154148565213,
              29.030485446037442
            ],
            [
              -88.96164412485611,
              29.03048394675974
            ],
            [
              -88.96164241889383,
              29.030393740583573
            ],
            [
              -88.96174505800087,
              29.030392241233056
            ],
            [
              -88.96174335195728,
              29.030302035061123
            ],
            [
              -88.9619486299697,
              29.030299036136125
            ],
            [
              -88.96194692375568,
              29.030208829973958
            ],
            [
              -88.96276803478007,
              29.03019683118439
            ],
            [
              -88.96276974170706,
              29.030287037302248
            ],
            [
              -88.96318029738833,
              29.030281036004972
            ],
            [
              -88.96318200467961,
              29.030371242099367
            ],
            [
              -88.96338728265162,
              29.03036824096956
            ],
            [
              -88.96338899012896,
              29.030458447051576
            ],
            [
              -88.96369690729576,
              29.030453944752637
            ],
            [
              -88.96369861504826,
              29.030544150816727
            ],
            [
              -88.96390389329864,
              29.030541148881277
            ],
            [
              -88.9639073091836,
              29.030721560983356
            ],
            [
              -88.9640099484753,
              29.030720059887024
            ],
            [
              -88.96401848877007,
              29.031171090091703
            ],
            [
              -88.96412112849957,
              29.03116958888931
            ],
            [
              -88.96412283667111,
              29.031259794920775
            ],
            [
              -88.96422547648191,
              29.03125829363449
            ],
            [
              -88.96422718475038,
              29.031348499659128
            ],
            [
              -88.96463774427198,
              29.031342493708287
            ],
            [
              -88.96463945290476,
              29.031432699709438
            ],
            [
              -88.9648447327969,
              29.03142969625283
            ],
            [
              -88.96484644161576,
              29.031519902241573
            ],
            [
              -88.96494908163923,
              29.031518400390198
            ],
            [
              -88.96495079055502,
              29.03160860637211
            ],
            [
              -88.96505343065981,
              29.031607104436834
            ],
            [
              -88.96505513967254,
              29.03169731041189
            ],
            [
              -88.96515777985863,
              29.031695808392715
            ],
            [
              -88.96516119808582,
              29.031876220327838
            ],
            [
              -88.96526383844234,
              29.03187471821922
            ],
            [
              -88.96527067534709,
              29.032235542051595
            ],
            [
              -88.9653733160523,
              29.03223403984244
            ],
            [
              -88.96537502538716,
              29.03232424579173
            ],
            [
              -88.96547766617368,
              29.03232274349867
            ],
            [
              -88.96548450394786,
              29.032683567260584
            ],
            [
              -88.96558714508308,
              29.032682064866993
            ],
            [
              -88.96563672527343,
              29.035298036356018
            ],
            [
              -88.96553408155326,
              29.0352995389105
            ],
            [
              -88.96553750094093,
              29.035479950707987
            ],
            [
              -88.96543485703462,
              29.035481453195203
            ],
            [
              -88.96543656665105,
              29.035571659097542
            ],
            [
              -88.96533392264779,
              29.03557316151194
            ],
            [
              -88.9653356321829,
              29.03566336741852
            ]
          ]
        ]
      },
      "properties": {
        "incident_id": "SP-014",
        "type": "AI-detected-slick",
        "source": "Sentinel-1 SAR",
        "method": "U-Net segmentation + radiometric filtering"
      }
    },
    {
      "type": "Feature",
      "geometry": {
        "type": "Polygon",
        "coordinates": [
          [
            [
              -88.97629787727092,
              29.034419700262884
            ],
            [
              -88.97527145500342,
              29.034434803331653
            ],
            [
              -88.97526973691579,
              29.034344597948838
            ],
            [
              -88.97506445254622,
              29.03434761761114
            ],
            [
              -88.97506273464472,
              29.03425741221586
            ],
            [
              -88.97496009253729,
              29.034258921923907
            ],
            [
              -88.9749583747328,
              29.03416871652175
            ],
            [
              -88.97485573270662,
              29.034170226145868
            ],
            [
              -88.97485401499912,
              29.03408002073683
            ],
            [
              -88.97475137305423,
              29.034081530277007
            ],
            [
              -88.97474278508025,
              29.0336305031844
            ],
            [
              -88.97484542657946,
              29.033628993672096
            ],
            [
              -88.97483855598519,
              29.033268171996813
            ],
            [
              -88.97494119712002,
              29.033266662428456
            ],
            [
              -88.97493947940197,
              29.033176457011944
            ],
            [
              -88.97514476146978,
              29.033173437651293
            ],
            [
              -88.97514132570072,
              29.032993026836646
            ],
            [
              -88.97524396654457,
              29.032991517049947
            ],
            [
              -88.9752422485827,
              29.03290131164624
            ],
            [
              -88.97534488932958,
              29.032899801786755
            ],
            [
              -88.97533973522374,
              29.03262918558456
            ],
            [
              -88.97544237569537,
              29.032627675663438
            ],
            [
              -88.97543893948585,
              29.03244726486659
            ],
            [
              -88.97554157977136,
              29.032445754878268
            ],
            [
              -88.97553986158927,
              29.032355549483466
            ],
            [
              -88.97564250177777,
              29.032354039422373
            ],
            [
              -88.97564078351442,
              29.032263834031834
            ],
            [
              -88.97574342360593,
              29.032262323897964
            ],
            [
              -88.97574170526133,
              29.032172118511706
            ],
            [
              -88.97584434525585,
              29.03217060830506
            ],
            [
              -88.97584090841195,
              29.03199019753976
            ],
            [
              -88.97594354822037,
              29.031988687265923
            ],
            [
              -88.9759418297211,
              29.031898481886902
            ],
            [
              -88.97604446943251,
              29.031896971540284
            ],
            [
              -88.97604103227928,
              29.031716560789473
            ],
            [
              -88.97614367180459,
              29.031715050375663
            ],
            [
              -88.97614195315066,
              29.03162484500386
            ],
            [
              -88.97624459257898,
              29.03162333451728
            ],
            [
              -88.97624287384379,
              29.031533129149775
            ],
            [
              -88.97634551317512,
              29.031531618590417
            ],
            [
              -88.97634379435867,
              29.031441413227185
            ],
            [
              -88.97644643359301,
              29.031439902595043
            ],
            [
              -88.97644471469529,
              29.031349697236067
            ],
            [
              -88.97654735383266,
              29.031348186531172
            ],
            [
              -88.97654563485368,
              29.031257981176484
            ],
            [
              -88.97664827389406,
              29.03125647039881
            ],
            [
              -88.97664483578146,
              29.03107605969666
            ],
            [
              -88.97674747463572,
              29.031074548851798
            ],
            [
              -88.9767457555021,
              29.03098434350435
            ],
            [
              -88.97684839425938,
              29.030982832586723
            ],
            [
              -88.9768466750445,
              29.030892627243535
            ],
            [
              -88.9769493137048,
              29.030891116253148
            ],
            [
              -88.97694759440866,
              29.030800910914234
            ],
            [
              -88.97715287152741,
              29.030797888709568
            ],
            [
              -88.9771511520609,
              29.03070768338051
            ],
            [
              -88.97725379051936,
              29.030706172166237
            ],
            [
              -88.9772520709716,
              29.030615966841463
            ],
            [
              -88.97735470933307,
              29.030614455554414
            ],
            [
              -88.97735298970406,
              29.03052425023391
            ],
            [
              -88.97745562796854,
              29.030522738874108
            ],
            [
              -88.97745390825827,
              29.030432533557885
            ],
            [
              -88.97755654642577,
              29.03043102212532
            ],
            [
              -88.97755482663426,
              29.030340816813364
            ],
            [
              -88.97776010276742,
              29.030337793724353
            ],
            [
              -88.97775838280553,
              29.030247588422252
            ],
            [
              -88.9778610207712,
              29.03024607676581
            ],
            [
              -88.97785930072807,
              29.030155871468004
            ],
            [
              -88.97806457645754,
              29.030152847931245
            ],
            [
              -88.97806285624404,
              29.03006264264329
            ],
            [
              -88.9782681317638,
              29.030059618804323
            ],
            [
              -88.97826641137993,
              29.029969413526214
            ],
            [
              -88.97847168668999,
              29.02996638938504
            ],
            [
              -88.97846996613578,
              29.029876184116816
            ],
            [
              -88.97877787877445,
              29.02987164733423
            ],
            [
              -88.97877615796075,
              29.02978144208144
            ],
            [
              -88.97928934508882,
              29.029773879238185
            ],
            [
              -88.9792910663481,
              29.029864084463043
            ],
            [
              -88.9793937038392,
              29.029862571653766
            ],
            [
              -88.97939542519545,
              29.029952776871735
            ],
            [
              -88.9794980627678,
              29.029951263978536
            ],
            [
              -88.97949978422105,
              29.030041469189623
            ],
            [
              -88.97960242187463,
              29.030039956212494
            ],
            [
              -88.97960930812286,
              29.030400777021402
            ],
            [
              -88.9795066701128,
              29.03040229002087
            ],
            [
              -88.97950839160542,
              29.030492495225417
            ],
            [
              -88.97940575349838,
              29.030494008152132
            ],
            [
              -88.97940919632903,
              29.030674418568484
            ],
            [
              -88.97920391973484,
              29.030677444209232
            ],
            [
              -88.97920564098375,
              29.030767649426632
            ],
            [
              -88.97910300258572,
              29.030769162135055
            ],
            [
              -88.97910472375337,
              29.030859367356737
            ],
            [
              -88.97900208525836,
              29.03086087999242
            ],
            [
              -88.97900552743906,
              29.031041290443
            ],
            [
              -88.97890288875791,
              29.031042803011516
            ],
            [
              -88.97890633079186,
              29.031223213468063
            ],
            [
              -88.97880369192461,
              29.031224725969384
            ],
            [
              -88.97881573866762,
              29.031856162565273
            ],
            [
              -88.97871309916864,
              29.031857675027346
            ],
            [
              -88.97871654098782,
              29.032038085482736
            ],
            [
              -88.97861390130272,
              29.03203959787762
            ],
            [
              -88.978615622135,
              29.032129803108948
            ],
            [
              -88.9785129823529,
              29.03213131543107
            ],
            [
              -88.9785181446296,
              29.03240193113395
            ],
            [
              -88.97841550457223,
              29.03240344339448
            ],
            [
              -88.9784206666524,
              29.032674059102366
            ],
            [
              -88.9783180263198,
              29.032675571301294
            ],
            [
              -88.97832146756768,
              29.032855981777853
            ],
            [
              -88.97821882704893,
              29.03285749390959
            ],
            [
              -88.97822570928267,
              29.033218314869394
            ],
            [
              -88.97812306839953,
              29.0332198269451
            ],
            [
              -88.97812822989009,
              29.033490442667993
            ],
            [
              -88.9780255887317,
              29.033491954682106
            ],
            [
              -88.97802730915515,
              29.03358215992604
            ],
            [
              -88.97792466789976,
              29.033583671867383
            ],
            [
              -88.97792638824194,
              29.033673877115593
            ],
            [
              -88.97782374688953,
              29.033675388984157
            ],
            [
              -88.97782546715048,
              29.03376559423665
            ],
            [
              -88.97772282570106,
              29.033767106032446
            ],
            [
              -88.97772454588075,
              29.033857311289204
            ],
            [
              -88.97762190433433,
              29.03385882301222
            ],
            [
              -88.97762362443274,
              29.03394902827326
            ],
            [
              -88.97741834113803,
              29.033952051495387
            ],
            [
              -88.97742006106606,
              29.034042256766305
            ],
            [
              -88.97721477756158,
              29.034045279686158
            ],
            [
              -88.9772164973192,
              29.03413548496691
            ],
            [
              -88.97690857173612,
              29.03414001877575
            ],
            [
              -88.97691029123419,
              29.034230224071944
            ],
            [
              -88.97670500729453,
              29.034233246230556
            ],
            [
              -88.9767067266222,
              29.034323451536608
            ],
            [
              -88.97629615829193,
              29.03432949493583
            ],
            [
              -88.97629787727092,
              29.034419700262884
            ]
          ]
        ]
      },
      "properties": {
        "incident_id": "SP-014",
        "type": "AI-detected-slick",
        "source": "Sentinel-1 SAR",
        "method": "U-Net segmentation + radiometric filtering"
      }
    },
    {
      "type": "Feature",
      "geometry": {
        "type": "Polygon",
        "coordinates": [
          [
            [
              -88.9814326671822,
              29.029110658119922
            ],
            [
              -88.98061157399663,
              29.02912277057752
            ],
            [
              -88.98060985164192,
              29.029032565414862
            ],
            [
              -88.98050721504735,
              29.029034079113934
            ],
            [
              -88.98049688161923,
              29.02849284807703
            ],
            [
              -88.98059951767911,
              29.028491334411484
            ],
            [
              -88.9805960730879,
              29.02831092406658
            ],
            [
              -88.9806987089617,
              29.028309410333883
            ],
            [
              -88.98069526422377,
              29.028128999994944
            ],
            [
              -88.98079789991147,
              29.02812748619508
            ],
            [
              -88.98079617746522,
              29.028037281029246
            ],
            [
              -88.98089881305593,
              29.028035767156638
            ],
            [
              -88.98089536800887,
              29.027855356832216
            ],
            [
              -88.98099800341349,
              29.027853842892462
            ],
            [
              -88.98099455821975,
              29.02767343257401
            ],
            [
              -88.98109719343827,
              29.027671918567094
            ],
            [
              -88.98109547076412,
              29.027581713411497
            ],
            [
              -88.98119810588565,
              29.027580199331837
            ],
            [
              -88.9811946603828,
              29.02739978902791
            ],
            [
              -88.98129729531823,
              29.027398274881104
            ],
            [
              -88.98129040405067,
              29.027037454279956
            ],
            [
              -88.98139303862182,
              29.027035940077166
            ],
            [
              -88.98137581011368,
              29.026133888538837
            ],
            [
              -88.98147844378596,
              29.026132374313647
            ],
            [
              -88.98147499800072,
              29.025951964001496
            ],
            [
              -88.98157763148691,
              29.025950449709153
            ],
            [
              -88.98157418555502,
              29.025770039402968
            ],
            [
              -88.98167681885515,
              29.02576852504348
            ],
            [
              -88.9816733727766,
              29.02558811474326
            ],
            [
              -88.98177600589064,
              29.025586600316625
            ],
            [
              -88.98177428277408,
              29.02549639517015
            ],
            [
              -88.98187691579116,
              29.025494880670777
            ],
            [
              -88.98187346940352,
              29.025314470385098
            ],
            [
              -88.98197610223451,
              29.02531295581858
            ],
            [
              -88.98197437896344,
              29.025222750679376
            ],
            [
              -88.98207701169746,
              29.025221236040135
            ],
            [
              -88.98207528834517,
              29.025131030905218
            ],
            [
              -88.9821779209822,
              29.02512951619325
            ],
            [
              -88.98217619754871,
              29.025039311062603
            ],
            [
              -88.98227883008876,
              29.025037796277896
            ],
            [
              -88.98227710657405,
              29.02494759115155
            ],
            [
              -88.98237973901712,
              29.0249460762941
            ],
            [
              -88.98237801542122,
              29.024855871172058
            ],
            [
              -88.9824806477673,
              29.024854356241878
            ],
            [
              -88.9824789240902,
              29.024764151124117
            ],
            [
              -88.98258155633931,
              29.02476263612121
            ],
            [
              -88.98257983258101,
              29.024672431007737
            ],
            [
              -88.98268246473314,
              29.0246709159321
            ],
            [
              -88.98268074089363,
              29.02458071082291
            ],
            [
              -88.98278337294877,
              29.024579195674534
            ],
            [
              -88.98277992511521,
              29.024398785463443
            ],
            [
              -88.98288255698431,
              29.024397270247935
            ],
            [
              -88.98287566105549,
              29.024036449832465
            ],
            [
              -88.98297829256033,
              29.02403493456102
            ],
            [
              -88.98297656850876,
              29.023944729459483
            ],
            [
              -88.98287393709299,
              29.023946244725323
            ],
            [
              -88.9828722131384,
              29.023856039616888
            ],
            [
              -88.98297484446508,
              29.023854524356636
            ],
            [
              -88.98297312042928,
              29.023764319252496
            ],
            [
              -88.98287048919168,
              29.023765834507152
            ],
            [
              -88.98286876525287,
              29.023675629396095
            ],
            [
              -88.98297139640137,
              29.023674114147035
            ],
            [
              -88.98296967238136,
              29.02358390904027
            ],
            [
              -88.98286704132194,
              29.02358542428375
            ],
            [
              -88.98286531739889,
              29.023495219170087
            ],
            [
              -88.98296794836922,
              29.023493703932214
            ],
            [
              -88.98296622436497,
              29.02340349882285
            ],
            [
              -88.98286359348373,
              29.023405014055125
            ],
            [
              -88.98283945949976,
              29.022142142308518
            ],
            [
              -88.98294208913384,
              29.02214062715459
            ],
            [
              -88.98293174593664,
              29.0215993963613
            ],
            [
              -88.98282911683702,
              29.021600911481656
            ],
            [
              -88.98281532706173,
              29.020879270306057
            ],
            [
              -88.98291795544874,
              29.02087775523048
            ],
            [
              -88.98291623167326,
              29.020787550083245
            ],
            [
              -88.98301885996331,
              29.02078603493494
            ],
            [
              -88.98301713610662,
              29.020695829792004
            ],
            [
              -88.98311976429973,
              29.020694314570978
            ],
            [
              -88.98311631643189,
              29.020513904292383
            ],
            [
              -88.98321894443895,
              29.02051238900424
            ],
            [
              -88.98321722042779,
              29.02042218386856
            ],
            [
              -88.9833198483379,
              29.02042066850771
            ],
            [
              -88.9833164001611,
              29.020240258243664
            ],
            [
              -88.98341902788516,
              29.020238742815692
            ],
            [
              -88.98341557956178,
              29.020058332557618
            ],
            [
              -88.98351820709982,
              29.02005681706252
            ],
            [
              -88.98351475862987,
              29.01987640681041
            ],
            [
              -88.98361738598187,
              29.0198748912482
            ],
            [
              -88.98361566166966,
              29.0197846861258
            ],
            [
              -88.9837182889247,
              29.019783170490875
            ],
            [
              -88.98371656453132,
              29.019692965372762
            ],
            [
              -88.9838191916894,
              29.019691449665125
            ],
            [
              -88.98381574274816,
              29.019511039436164
            ],
            [
              -88.98391836972021,
              29.019509523661416
            ],
            [
              -88.9839149206324,
              29.019329113438427
            ],
            [
              -88.98401754741843,
              29.01932759759657
            ],
            [
              -88.98401409818405,
              29.019147187379573
            ],
            [
              -88.98411672478406,
              29.019145671470586
            ],
            [
              -88.98411500008964,
              29.01905546636573
            ],
            [
              -88.9842176265927,
              29.01905395038405
            ],
            [
              -88.9842141770494,
              29.018873540181602
            ],
            [
              -88.98431680336644,
              29.018872024132815
            ],
            [
              -88.98431507851757,
              29.018781819035244
            ],
            [
              -88.98441770473765,
              29.018780302913743
            ],
            [
              -88.98441425488544,
              29.018599892725863
            ],
            [
              -88.9845168809195,
              29.018598376537266
            ],
            [
              -88.9845117059332,
              29.01832776126245
            ],
            [
              -88.98461433169219,
              29.01832624501235
            ],
            [
              -88.98461088156267,
              29.018145834833813
            ],
            [
              -88.98471350713562,
              29.0181443185166
            ],
            [
              -88.98471005685957,
              29.01796390834405
            ],
            [
              -88.9848126822465,
              29.017962391959735
            ],
            [
              -88.98481095703126,
              29.0178721868771
            ],
            [
              -88.98491358232125,
              29.017870670420077
            ],
            [
              -88.98491185702484,
              29.01778046534174
            ],
            [
              -88.98501448221786,
              29.01777894881203
            ],
            [
              -88.9850110314706,
              29.01759853866263
            ],
            [
              -88.98511365647764,
              29.017597022065807
            ],
            [
              -88.98511193102678,
              29.017506816994754
            ],
            [
              -88.98521455593685,
              29.01750530032524
            ],
            [
              -88.98521110488072,
              29.017324890190423
            ],
            [
              -88.98531372960478,
              29.017323373453806
            ],
            [
              -88.9853120039995,
              29.017233168390042
            ],
            [
              -88.9854146286266,
              29.017231651580722
            ],
            [
              -88.98541117726162,
              29.017051241460486
            ],
            [
              -88.98551380170272,
              29.01704972458407
            ],
            [
              -88.98551207594302,
              29.01695951952759
            ],
            [
              -88.98561470028716,
              29.016958002578484
            ],
            [
              -88.98561124861335,
              29.01677759247282
            ],
            [
              -88.98571387277147,
              29.01677607545662
            ],
            [
              -88.98571214685735,
              29.01668587040743
            ],
            [
              -88.98581477091854,
              29.016684353318528
            ],
            [
              -88.98580268911748,
              29.016052917976896
            ],
            [
              -88.9859053125474,
              29.016051400848923
            ],
            [
              -88.98590186049721,
              29.01587099075078
            ],
            [
              -88.98600448374113,
              29.01586947355571
            ],
            [
              -88.98600275763883,
              29.015779268510272
            ],
            [
              -88.9861053807858,
              29.01577775124252
            ],
            [
              -88.98610365460235,
              29.01568754620139
            ],
            [
              -88.9863089006945,
              29.015684511442192
            ],
            [
              -88.98630717434085,
              29.015594306410964
            ],
            [
              -88.98692291189334,
              29.015585200287873
            ],
            [
              -88.98692463878129,
              29.01567540528546
            ],
            [
              -88.987129884747,
              29.015672369273524
            ],
            [
              -88.98713161182096,
              29.015762574258595
            ],
            [
              -88.987234234881,
              29.015761056129566
            ],
            [
              -88.9872359620519,
              29.01585126110772
            ],
            [
              -88.9874412083264,
              29.01584822460356
            ],
            [
              -88.98744293568329,
              29.015938429569204
            ],
            [
              -88.98754555889774,
              29.015936911194064
            ],
            [
              -88.9875472863516,
              29.01602711615279
            ],
            [
              -88.98764990964719,
              29.016025597693744
            ],
            [
              -88.98765163719801,
              29.01611580264555
            ],
            [
              -88.98775426057473,
              29.016114284102606
            ],
            [
              -88.9877559882225,
              29.01620448904751
            ],
            [
              -88.98785861168038,
              29.01620297042065
            ],
            [
              -88.98786897826734,
              29.016744200028928
            ],
            [
              -88.98776635427514,
              29.01674571868943
            ],
            [
              -88.98776808197825,
              29.016835923625177
            ],
            [
              -88.9876654578891,
              29.016837442212996
            ],
            [
              -88.98766891314091,
              29.0170178520918
            ],
            [
              -88.98746366458266,
              29.017020889054972
            ],
            [
              -88.98746711950987,
              29.01720129895099
            ],
            [
              -88.98726187056377,
              29.01720433562339
            ],
            [
              -88.9872653251664,
              29.01738474553661
            ],
            [
              -88.98716270050338,
              29.017386263766582
            ],
            [
              -88.9871661549595,
              29.01756667368578
            ],
            [
              -88.98706353011046,
              29.017568191848657
            ],
            [
              -88.98707043876131,
              29.01792901169387
            ],
            [
              -88.98696781354813,
              29.01793052980086
            ],
            [
              -88.98697472196918,
              29.018291349647598
            ],
            [
              -88.98687209639186,
              29.01829286769873
            ],
            [
              -88.98687727752343,
              29.01856348258689
            ],
            [
              -88.98677465167104,
              29.01856500057653
            ],
            [
              -88.98677810562015,
              29.01874541050666
            ],
            [
              -88.9866754795817,
              29.018746928429213
            ],
            [
              -88.98667893338431,
              29.018927338365316
            ],
            [
              -88.98657630715984,
              29.01892885622077
            ],
            [
              -88.9865814876558,
              29.01919947113198
            ],
            [
              -88.98647886115624,
              29.01920098892594
            ],
            [
              -88.98648576823854,
              29.01956180881168
            ],
            [
              -88.98638314137482,
              29.01956332654977
            ],
            [
              -88.98638659478523,
              29.019743736496014
            ],
            [
              -88.98628396773547,
              29.019745254166992
            ],
            [
              -88.98628569436347,
              29.019835459143764
            ],
            [
              -88.98618306721674,
              29.01983697674204
            ],
            [
              -88.98618479376356,
              29.019927181723123
            ],
            [
              -88.98608216651986,
              29.0199286992487
            ],
            [
              -88.98608561945908,
              29.020109109218115
            ],
            [
              -88.98598299202935,
              29.0201106266766
            ],
            [
              -88.98598471842173,
              29.020200831664965
            ],
            [
              -88.98588209089502,
              29.02020234905073
            ],
            [
              -88.98588554352536,
              29.020382759034735
            ],
            [
              -88.9857829158126,
              29.02038427635339
            ],
            [
              -88.98579499964411,
              29.02101571129556
            ],
            [
              -88.98569237129995,
              29.021017228575133
            ],
            [
              -88.98569582371618,
              29.021197638558064
            ],
            [
              -88.98559319518597,
              29.02119915577053
            ],
            [
              -88.98560009975692,
              29.02155997574314
            ],
            [
              -88.98549747086251,
              29.021561492899718
            ],
            [
              -88.98551300580748,
              29.022373337812127
            ],
            [
              -88.98561563550359,
              29.02237182060513
            ],
            [
              -88.98561736173716,
              29.022462025583266
            ],
            [
              -88.98551473195198,
              29.02246354279587
            ],
            [
              -88.98551645810436,
              29.022553747778296
            ],
            [
              -88.98561908797862,
              29.022552230560105
            ],
            [
              -88.98562081422799,
              29.02264243553562
            ],
            [
              -88.98551818426463,
              29.02264395275943
            ],
            [
              -88.98551991043283,
              29.02273415773925
            ],
            [
              -88.98562254048525,
              29.022732640509844
            ],
            [
              -88.9856242667504,
              29.022822845482757
            ],
            [
              -88.9855216366089,
              29.022824362717774
            ],
            [
              -88.98552336279288,
              29.022914567694976
            ],
            [
              -88.98562599302348,
              29.02291305045436
            ],
            [
              -88.98563807715607,
              29.023544485219055
            ],
            [
              -88.98553544630188,
              29.02354600249889
            ],
            [
              -88.98554407761671,
              29.02399702731966
            ],
            [
              -88.9854414463092,
              29.023998544549194
            ],
            [
              -88.98544489871223,
              29.02417895447958
            ],
            [
              -88.98534226721866,
              29.024180471642
            ],
            [
              -88.98534571947512,
              29.02436088157835
            ],
            [
              -88.98524308779545,
              29.024362398673645
            ],
            [
              -88.98524653990533,
              29.024542808615987
            ],
            [
              -88.98514390803959,
              29.024544325644168
            ],
            [
              -88.98514563401729,
              29.024634530618982
            ],
            [
              -88.98504300205455,
              29.02463604757445
            ],
            [
              -88.98504645385545,
              29.024816457531358
            ],
            [
              -88.98494382170665,
              29.024817974419697
            ],
            [
              -88.98494727336094,
              29.024998384382585
            ],
            [
              -88.98484464102607,
              29.0249999012038
            ],
            [
              -88.98484636677597,
              29.025090106188895
            ],
            [
              -88.9847437343441,
              29.02509162293738
            ],
            [
              -88.98474718568941,
              29.02527203291485
            ],
            [
              -88.98464455307145,
              29.025273549596204
            ],
            [
              -88.98464627866687,
              29.025363754588582
            ],
            [
              -88.98454364595192,
              29.02536527119722
            ],
            [
              -88.98454537146613,
              29.025455476193894
            ],
            [
              -88.9844427386542,
              29.025456992729794
            ],
            [
              -88.9844461895281,
              29.02563740273042
            ],
            [
              -88.98434355653008,
              29.025638919199206
            ],
            [
              -88.98434528188979,
              29.025729124203156
            ],
            [
              -88.98424264879479,
              29.025730640599214
            ],
            [
              -88.98424437407328,
              29.025820845607456
            ],
            [
              -88.9841417408813,
              29.025822361930782
            ],
            [
              -88.98414346607859,
              29.025912566943326
            ],
            [
              -88.9840408327896,
              29.025914083193918
            ],
            [
              -88.98404255790571,
              29.02600428821076
            ],
            [
              -88.98393992451972,
              29.026005804388625
            ],
            [
              -88.9839433745974,
              29.026186214429572
            ],
            [
              -88.98384074102535,
              29.026187730540293
            ],
            [
              -88.98384246598692,
              29.026277935564416
            ],
            [
              -88.98373983231787,
              29.026279451602413
            ],
            [
              -88.98374328208652,
              29.026459861657916
            ],
            [
              -88.98364064823137,
              29.026461377628785
            ],
            [
              -88.98364409785339,
              29.026641787690277
            ],
            [
              -88.98354146381214,
              29.026643303594003
            ],
            [
              -88.98354663803705,
              29.026913918693236
            ],
            [
              -88.98344400372063,
              29.026915434535425
            ],
            [
              -88.98344745306515,
              29.027095844606254
            ],
            [
              -88.98334481856263,
              29.02709736038131
            ],
            [
              -88.98334826776052,
              29.0272777704581
            ],
            [
              -88.98324563307192,
              29.027279286166003
            ],
            [
              -88.98324908212315,
              29.027459696248787
            ],
            [
              -88.98314644724844,
              29.027461211889545
            ],
            [
              -88.98315162061718,
              29.027731827020702
            ],
            [
              -88.98304898546725,
              29.027733342599923
            ],
            [
              -88.98305243424099,
              29.027913752692022
            ],
            [
              -88.98294979890497,
              29.02791526820411
            ],
            [
              -88.98295152321457,
              29.028005473253796
            ],
            [
              -88.98284888778156,
              29.02800698869313
            ],
            [
              -88.98285061200994,
              29.028097193747108
            ],
            [
              -88.98274797647993,
              29.02809870911371
            ],
            [
              -88.98274970062708,
              29.028188914171977
            ],
            [
              -88.9826470650001,
              29.028190429465834
            ],
            [
              -88.98264878906602,
              29.028280634528393
            ],
            [
              -88.98254615334203,
              29.02828214974952
            ],
            [
              -88.98254787732675,
              29.02837235481636
            ],
            [
              -88.98244524150576,
              29.028373869964735
            ],
            [
              -88.98244696540927,
              29.028464075035878
            ],
            [
              -88.98234432949127,
              29.02846559011151
            ],
            [
              -88.98234605331355,
              29.028555795186943
            ],
            [
              -88.98224341729858,
              29.028557310189825
            ],
            [
              -88.98224514103963,
              29.02864751526954
            ],
            [
              -88.98214250492765,
              29.028649030199674
            ],
            [
              -88.98214422858749,
              29.028739235283684
            ],
            [
              -88.98204159237852,
              29.02874075014108
            ],
            [
              -88.98204331595713,
              29.028830955229378
            ],
            [
              -88.9818380433373,
              29.02883398472035
            ],
            [
              -88.98183976674558,
              29.02892418981852
            ],
            [
              -88.981634493916,
              29.028927219007315
            ],
            [
              -88.98163621715395,
              29.029017424115366
            ],
            [
              -88.98143094411459,
              29.029020453001987
            ],
            [
              -88.9814326671822,
              29.029110658119922
            ]
          ]
        ]
      },
      "properties": {
        "incident_id": "SP-014",
        "type": "AI-detected-slick",
        "source": "Sentinel-1 SAR",
        "method": "U-Net segmentation + radiometric filtering"
      }
    }
  ]
}