{
  "type": "FeatureCollection",
  "name": "SP-020_AI_Spill_Footprint",
  "features": [
    {
      "type": "Feature",
      "geometry": {
        "type": "Polygon",
        "coordinates": [
          [
            [
              -89.826602898559,
              28.853941179950876
            ],
            [
              -89.82639809764635,
              28.853945475845286
            ],
            [
              -89.82578364671598,
              28.831227275912667
            ],
            [
              -89.82588602498859,
              28.831225130009145
            ],
            [
              -89.82589089896712,
              28.83140543351584
            ],
            [
              -89.82599327740458,
              28.83140328751888
            ],
            [
              -89.82600302584764,
              28.831763894483736
            ],
            [
              -89.82610540462593,
              28.83176174837741
            ],
            [
              -89.82611759087105,
              28.832212507012336
            ],
            [
              -89.82621997007821,
              28.832210360788707
            ],
            [
              -89.82622971962732,
              28.832570967639732
            ],
            [
              -89.82633209917535,
              28.832568821306737
            ],
            [
              -89.82634184925517,
              28.83292942810364
            ],
            [
              -89.82644422914404,
              28.83292728166128
            ],
            [
              -89.82645641743517,
              28.83337804008626
            ],
            [
              -89.82655879775295,
              28.83337589352658
            ],
            [
              -89.82656854893894,
              28.833736500209646
            ],
            [
              -89.82667092959757,
              28.833734353540585
            ],
            [
              -89.82667580543361,
              28.83391465685784
            ],
            [
              -89.82677818625712,
              28.833912510095328
            ],
            [
              -89.82678062427989,
              28.83400266174391
            ],
            [
              -89.82688300518026,
              28.83400051489589
            ],
            [
              -89.82690007226861,
              28.834631576341213
            ],
            [
              -89.82679769075216,
              28.834633723244927
            ],
            [
              -89.82680256698761,
              28.834814026518398
            ],
            [
              -89.82670018528394,
              28.834816173360483
            ],
            [
              -89.82670993753683,
              28.8351767799225
            ],
            [
              -89.82681231959258,
              28.83517463304859
            ],
            [
              -89.82681475777176,
              28.835264784677662
            ],
            [
              -89.82691713990434,
              28.835262637718234
            ],
            [
              -89.82692201647224,
              28.835442940956263
            ],
            [
              -89.8270243987697,
              28.835440793903377
            ],
            [
              -89.82705853722844,
              28.836702916302027
            ],
            [
              -89.82716092074705,
              28.836700769060183
            ],
            [
              -89.82717067534671,
              28.837061375377765
            ],
            [
              -89.82727305920626,
              28.837059228026533
            ],
            [
              -89.82727549797212,
              28.83714937959448
            ],
            [
              -89.82737788190853,
              28.83714723215773
            ],
            [
              -89.8273803207736,
              28.837237383716342
            ],
            [
              -89.82748270478687,
              28.837235236194072
            ],
            [
              -89.82748514375115,
              28.837325387743313
            ],
            [
              -89.82758752784126,
              28.837323240135536
            ],
            [
              -89.8275924059794,
              28.837503543213938
            ],
            [
              -89.8276947902344,
              28.83750139551267
            ],
            [
              -89.82769966859328,
              28.837681698569572
            ],
            [
              -89.82780205301317,
              28.837679550774837
            ],
            [
              -89.82780937089942,
              28.837950005325837
            ],
            [
              -89.82791175557222,
              28.837947857429675
            ],
            [
              -89.8279288316475,
              28.838578917944147
            ],
            [
              -89.82803121692535,
              28.838576769914695
            ],
            [
              -89.82805561314893,
              28.839478284737265
            ],
            [
              -89.82795322699073,
              28.839480432846322
            ],
            [
              -89.8279556665865,
              28.839570584328865
            ],
            [
              -89.82785328032907,
              28.839572732368325
            ],
            [
              -89.827855719848,
              28.839662883857436
            ],
            [
              -89.82775333349136,
              28.839665031827288
            ],
            [
              -89.82775577293341,
              28.83975518332298
            ],
            [
              -89.8275510000105,
              28.83975947904591
            ],
            [
              -89.82755343928767,
              28.839849630556117
            ],
            [
              -89.82745105272141,
              28.839851778309207
            ],
            [
              -89.82745349192172,
              28.839941929825972
            ],
            [
              -89.82735110525624,
              28.839944077509443
            ],
            [
              -89.827360861817,
              28.84030468359442
            ],
            [
              -89.82746324883466,
              28.840302535879108
            ],
            [
              -89.82746812735817,
              28.840482838897305
            ],
            [
              -89.82757051454071,
              28.840480691088512
            ],
            [
              -89.82758027207403,
              28.84084129707635
            ],
            [
              -89.8274778845393,
              28.84084344491698
            ],
            [
              -89.82749983885063,
              28.841654808379676
            ],
            [
              -89.82739745051231,
              28.841656956214372
            ],
            [
              -89.82740232919498,
              28.841837259206663
            ],
            [
              -89.82729994066939,
              28.84183940697972
            ],
            [
              -89.82730481922069,
              28.842019709982342
            ],
            [
              -89.82720243050781,
              28.84202185769375
            ],
            [
              -89.8272073089277,
              28.842202160706716
            ],
            [
              -89.82700253111625,
              28.842206455928647
            ],
            [
              -89.82700497016684,
              28.842296607448947
            ],
            [
              -89.8269025811563,
              28.84229875495151
            ],
            [
              -89.82690502013003,
              28.842388906478384
            ],
            [
              -89.82680263102027,
              28.84239105391133
            ],
            [
              -89.82682214250787,
              28.843112266139798
            ],
            [
              -89.82671975268251,
              28.843114413558826
            ],
            [
              -89.82673438623915,
              28.84365532271935
            ],
            [
              -89.82683677659286,
              28.84365317525257
            ],
            [
              -89.82685628933189,
              28.84437438732485
            ],
            [
              -89.82675389827371,
              28.8443765348553
            ],
            [
              -89.82676853276892,
              28.8449174438987
            ],
            [
              -89.8266661411712,
              28.844919591399314
            ],
            [
              -89.8266905320098,
              28.845821106439654
            ],
            [
              -89.82679292448817,
              28.845818958859468
            ],
            [
              -89.82679780296611,
              28.845999261834876
            ],
            [
              -89.82690019560945,
              28.845997114161186
            ],
            [
              -89.82690263495324,
              28.846087265638857
            ],
            [
              -89.82710742038252,
              28.8460829700428
            ],
            [
              -89.82710985991362,
              28.84617312150315
            ],
            [
              -89.82721225269957,
              28.84617097358079
            ],
            [
              -89.82721713197145,
              28.846351276481386
            ],
            [
              -89.82731952492236,
              28.846349128465526
            ],
            [
              -89.82732928395252,
              28.846709734218138
            ],
            [
              -89.82743167724453,
              28.84670758609285
            ],
            [
              -89.82743899689874,
              28.846978040368793
            ],
            [
              -89.82754139044377,
              28.84697589214204
            ],
            [
              -89.82754627044527,
              28.847156194969777
            ],
            [
              -89.82744387672408,
              28.847158343212442
            ],
            [
              -89.82745119654594,
              28.84742879746747
            ],
            [
              -89.82734880254934,
              28.847430945656427
            ],
            [
              -89.82735124242424,
              28.847521097079944
            ],
            [
              -89.82724884832841,
              28.84752324519928
            ],
            [
              -89.82726104743017,
              28.847974002335715
            ],
            [
              -89.82736344196638,
              28.84797185417658
            ],
            [
              -89.82738052179482,
              28.8486029140533
            ],
            [
              -89.82727812664207,
              28.848605062268152
            ],
            [
              -89.82728544647196,
              28.84887551650398
            ],
            [
              -89.82718305104379,
              28.84887766466511
            ],
            [
              -89.82718793081011,
              28.84905796749796
            ],
            [
              -89.82708553519458,
              28.849060115597418
            ],
            [
              -89.82709041482944,
              28.849240418440598
            ],
            [
              -89.8269880190266,
              28.849242566478377
            ],
            [
              -89.8269904587727,
              28.84933271790583
            ],
            [
              -89.82709285466366,
              28.849330569860086
            ],
            [
              -89.82710505400229,
              28.84978132693665
            ],
            [
              -89.82700265767093,
              28.849783475022196
            ],
            [
              -89.8270050974841,
              28.849873626441273
            ],
            [
              -89.82710749390355,
              28.849871478347783
            ],
            [
              -89.82710993381599,
              28.84996162975751
            ],
            [
              -89.82700753730845,
              28.84996377785897
            ],
            [
              -89.82701241699068,
              28.85014408069017
            ],
            [
              -89.8269100202958,
              28.85014622872995
            ],
            [
              -89.82691489984656,
              28.850326531571493
            ],
            [
              -89.82681250296433,
              28.85032867954959
            ],
            [
              -89.82681738238362,
              28.85050898240147
            ],
            [
              -89.82671498531404,
              28.85051113031788
            ],
            [
              -89.82671742495236,
              28.850601281749686
            ],
            [
              -89.82681982211002,
              28.850599133825305
            ],
            [
              -89.82682226184761,
              28.85068928524776
            ],
            [
              -89.82671986460186,
              28.8506914331801
            ],
            [
              -89.82672230426252,
              28.850781584609113
            ],
            [
              -89.82682470159638,
              28.850779436668823
            ],
            [
              -89.82683202090972,
              28.851049890923626
            ],
            [
              -89.82693441849666,
              28.851047742881864
            ],
            [
              -89.8269368583782,
              28.85113789428938
            ],
            [
              -89.82703925604206,
              28.851135746162054
            ],
            [
              -89.82704169602287,
              28.85122589756023
            ],
            [
              -89.82745128691889,
              28.851217304243097
            ],
            [
              -89.8274561676188,
              28.851397606971574
            ],
            [
              -89.82755856549105,
              28.85139545843236
            ],
            [
              -89.82756100594587,
              28.851485609786547
            ],
            [
              -89.82745860798553,
              28.851487758333718
            ],
            [
              -89.82746348875251,
              28.85166806105381
            ],
            [
              -89.82736109060481,
              28.8516702095393
            ],
            [
              -89.82736353091698,
              28.851760360905224
            ],
            [
              -89.82726113267002,
              28.851762509321063
            ],
            [
              -89.82726357290527,
              28.851852660693552
            ],
            [
              -89.82716117455902,
              28.851854809039757
            ],
            [
              -89.82717093525943,
              28.852215414547587
            ],
            [
              -89.82737573264549,
              28.852211117713903
            ],
            [
              -89.82737329227743,
              28.852120966354956
            ],
            [
              -89.8275780894426,
              28.852116669226778
            ],
            [
              -89.82758297054227,
              28.852296971911443
            ],
            [
              -89.82768536928427,
              28.852294823215022
            ],
            [
              -89.82769269128192,
              28.852565277207663
            ],
            [
              -89.82759029227563,
              28.85256742592796
            ],
            [
              -89.82759761410962,
              28.85283787993193
            ],
            [
              -89.8277000133802,
              28.852835731187753
            ],
            [
              -89.82771709866749,
              28.853466790425802
            ],
            [
              -89.82761469878021,
              28.853468939225714
            ],
            [
              -89.82761713949216,
              28.853559090547815
            ],
            [
              -89.82751473950559,
              28.853561239278072
            ],
            [
              -89.82751718014063,
              28.85365139060674
            ],
            [
              -89.8269027794579,
              28.853664281406274
            ],
            [
              -89.82690521957548,
              28.853754432781315
            ],
            [
              -89.82670041908227,
              28.853758729109554
            ],
            [
              -89.82670285903484,
              28.8538488804991
            ],
            [
              -89.82660045868337,
              28.853851028554764
            ],
            [
              -89.826602898559,
              28.853941179950876
            ]
          ]
        ]
      },
      "properties": {
        "incident_id": "SP-020",
        "type": "AI-detected-slick",
        "source": "Sentinel-1 SAR",
        "method": "U-Net segmentation + radiometric filtering"
      }
    },
    {
      "type": "Feature",
      "geometry": {
        "type": "Polygon",
        "coordinates": [
          [
            [
              -89.97468888368013,
              28.772462735950704
            ],
            [
              -89.97448426898579,
              28.772467245102884
            ],
            [
              -89.97448171019246,
              28.772377104454943
            ],
            [
              -89.9740724810138,
              28.772386121798075
            ],
            [
              -89.97406992258298,
              28.772295981115263
            ],
            [
              -89.97396761534668,
              28.7722982352494
            ],
            [
              -89.97396505701528,
              28.77220809455681
            ],
            [
              -89.97386274985496,
              28.772210348605263
            ],
            [
              -89.97386019162298,
              28.772120207902912
            ],
            [
              -89.97375788453861,
              28.772122461865685
            ],
            [
              -89.97375532640604,
              28.772032321153542
            ],
            [
              -89.97365301939764,
              28.77203457503064
            ],
            [
              -89.9736504613645,
              28.77194443430873
            ],
            [
              -89.97344584748791,
              28.77194894181426
            ],
            [
              -89.97344328964186,
              28.771858801074213
            ],
            [
              -89.97334098277369,
              28.771861054702644
            ],
            [
              -89.97333842502705,
              28.771770913952817
            ],
            [
              -89.97323611823484,
              28.771773167495578
            ],
            [
              -89.97323356058763,
              28.771683026735964
            ],
            [
              -89.9730289471434,
              28.77168753357282
            ],
            [
              -89.97302638968328,
              28.771597392795076
            ],
            [
              -89.97282177636754,
              28.771601899305956
            ],
            [
              -89.97281921909453,
              28.771511758510087
            ],
            [
              -89.97271691250677,
              28.771514011641198
            ],
            [
              -89.97271946969208,
              28.771604152445427
            ],
            [
              -89.97179870908552,
              28.77162442722166
            ],
            [
              -89.97179615268941,
              28.771534286342177
            ],
            [
              -89.97169384598445,
              28.771536538700186
            ],
            [
              -89.97169128968775,
              28.771446397810934
            ],
            [
              -89.97158898305875,
              28.771448650083258
            ],
            [
              -89.97158642686146,
              28.77135850918424
            ],
            [
              -89.97148412030845,
              28.771360761370893
            ],
            [
              -89.97148156421056,
              28.771270620462104
            ],
            [
              -89.9713792577335,
              28.77127287256309
            ],
            [
              -89.97137414574827,
              28.77109259072457
            ],
            [
              -89.97127183943488,
              28.77109484273153
            ],
            [
              -89.97126417180796,
              28.770824419938066
            ],
            [
              -89.97116186574593,
              28.770826671842656
            ],
            [
              -89.9711567542286,
              28.77064638995657
            ],
            [
              -89.97105444833022,
              28.770648641767128
            ],
            [
              -89.97104933703513,
              28.770468359858697
            ],
            [
              -89.97084472555396,
              28.77047286321446
            ],
            [
              -89.97084217009936,
              28.770382722241415
            ],
            [
              -89.97073986442886,
              28.77038497379498
            ],
            [
              -89.97073730907367,
              28.77029483281216
            ],
            [
              -89.97063500347917,
              28.770297084280056
            ],
            [
              -89.9706273377469,
              28.770026661298072
            ],
            [
              -89.97072964307836,
              28.770024409855242
            ],
            [
              -89.97072708777002,
              28.769934268866795
            ],
            [
              -89.97093169822242,
              28.76992976576592
            ],
            [
              -89.97092914275042,
              28.76983962479277
            ],
            [
              -89.9712360580781,
              28.769832869586743
            ],
            [
              -89.97123350235478,
              28.769742728637237
            ],
            [
              -89.97133580735289,
              28.769740476755643
            ],
            [
              -89.97133325155359,
              28.769650335813097
            ],
            [
              -89.9715378613393,
              28.769645831834694
            ],
            [
              -89.97153530537636,
              28.76955569090745
            ],
            [
              -89.97194452445648,
              28.769546682056426
            ],
            [
              -89.97194196815451,
              28.769456541161198
            ],
            [
              -89.9721465774489,
              28.76945203628857
            ],
            [
              -89.97214402098331,
              28.769361895408657
            ],
            [
              -89.97224632552523,
              28.76935964286475
            ],
            [
              -89.97224376898369,
              28.769269501991783
            ],
            [
              -89.9726529866835,
              28.76926049107654
            ],
            [
              -89.97265042980294,
              28.769170350235605
            ],
            [
              -89.97285503840716,
              28.76916584433089
            ],
            [
              -89.97285248136298,
              28.769075703505266
            ],
            [
              -89.97305708974496,
              28.76907119730805
            ],
            [
              -89.97305453253712,
              28.768981056497733
            ],
            [
              -89.97315683662285,
              28.768978803291542
            ],
            [
              -89.97315427933907,
              28.768888662488177
            ],
            [
              -89.9732565833254,
              28.768886409213042
            ],
            [
              -89.97325402596566,
              28.768796268416637
            ],
            [
              -89.97335632985258,
              28.768794015072558
            ],
            [
              -89.97335377241689,
              28.768703874283094
            ],
            [
              -89.97345607620441,
              28.768701620870083
            ],
            [
              -89.97345351869278,
              28.768611480087575
            ],
            [
              -89.9735558223809,
              28.768609226605623
            ],
            [
              -89.9735532647933,
              28.768519085830075
            ],
            [
              -89.97375787195901,
              28.76851457865098
            ],
            [
              -89.9737553142078,
              28.768424437890747
            ],
            [
              -89.9740622246054,
              28.768417676567445
            ],
            [
              -89.97405966660288,
              28.76832753583089
            ],
            [
              -89.97416196995763,
              28.768325281910222
            ],
            [
              -89.97416452804782,
              28.768415422638412
            ],
            [
              -89.97447143830473,
              28.768408660387507
            ],
            [
              -89.9744688799515,
              28.76831851968441
            ],
            [
              -89.97508269962259,
              28.76830499314567
            ],
            [
              -89.97508014075504,
              28.768214852491372
            ],
            [
              -89.97518244390483,
              28.768212597806063
            ],
            [
              -89.97517988496134,
              28.76812245715872
            ],
            [
              -89.97528218801172,
              28.768120202404482
            ],
            [
              -89.97524636280717,
              28.766858233310597
            ],
            [
              -89.97514406098418,
              28.766860487947685
            ],
            [
              -89.97513382598441,
              28.76649992526514
            ],
            [
              -89.97533842891733,
              28.766495415980625
            ],
            [
              -89.97533587002137,
              28.76640527532319
            ],
            [
              -89.97564277406975,
              28.766398510841825
            ],
            [
              -89.97564021492254,
              28.766308370208098
            ],
            [
              -89.97594711860235,
              28.76630160505619
            ],
            [
              -89.97594967801255,
              28.76639174566481
            ],
            [
              -89.97635888310536,
              28.766382724346666
            ],
            [
              -89.97636144287797,
              28.766472864920402
            ],
            [
              -89.9765660455293,
              28.76646835378082
            ],
            [
              -89.97656860548896,
              28.76655849433639
            ],
            [
              -89.9766709068847,
              28.76655623864229
            ],
            [
              -89.97667346694378,
              28.766646379188074
            ],
            [
              -89.97677576841544,
              28.766644123408305
            ],
            [
              -89.97677832857391,
              28.766734263944315
            ],
            [
              -89.9768806301215,
              28.76673200807888
            ],
            [
              -89.97688319037938,
              28.76682214860509
            ],
            [
              -89.97698549200291,
              28.766819892653988
            ],
            [
              -89.97699061272922,
              28.767000173685446
            ],
            [
              -89.97709291451633,
              28.766997917640296
            ],
            [
              -89.97709547498476,
              28.767088058145532
            ],
            [
              -89.9771977768478,
              28.767085802014716
            ],
            [
              -89.97720289799523,
              28.767266083004216
            ],
            [
              -89.97740750203678,
              28.767261570477196
            ],
            [
              -89.97741006280344,
              28.767351710953072
            ],
            [
              -89.97761466697338,
              28.767347198100108
            ],
            [
              -89.97761722792711,
              28.767437338557837
            ],
            [
              -89.97782183222543,
              28.767432825378947
            ],
            [
              -89.97782439336625,
              28.767522965818497
            ],
            [
              -89.97792669558545,
              28.767520709104723
            ],
            [
              -89.97792925682569,
              28.767610849534503
            ],
            [
              -89.97803155912082,
              28.76760859273505
            ],
            [
              -89.97803412046046,
              28.767698733155033
            ],
            [
              -89.97823872519089,
              28.767694219307497
            ],
            [
              -89.97824128671759,
              28.767784359709317
            ],
            [
              -89.97834358915286,
              28.767782102661233
            ],
            [
              -89.978346150779,
              28.76787224305325
            ],
            [
              -89.9784484532902,
              28.767869985919493
            ],
            [
              -89.97845101501574,
              28.767960126301734
            ],
            [
              -89.97855331760287,
              28.76795786908229
            ],
            [
              -89.97855587942782,
              28.768048009454734
            ],
            [
              -89.97865818209088,
              28.76804575214962
            ],
            [
              -89.97866330595137,
              28.768226032873507
            ],
            [
              -89.97876560877803,
              28.768223775474343
            ],
            [
              -89.97877329491989,
              28.76849419652447
            ],
            [
              -89.97887559799783,
              28.76849193902286
            ],
            [
              -89.97888072232647,
              28.76867221969912
            ],
            [
              -89.978983025568,
              28.768669962103456
            ],
            [
              -89.97898815011897,
              28.76885024275731
            ],
            [
              -89.97909045352411,
              28.76884798506759
            ],
            [
              -89.97910070311772,
              28.769208546324833
            ],
            [
              -89.97899839936188,
              28.769210804048075
            ],
            [
              -89.97902146084556,
              28.770022066869657
            ],
            [
              -89.97891915628884,
              28.770024324591002
            ],
            [
              -89.97892171864697,
              28.770114464905827
            ],
            [
              -89.97871710932297,
              28.77011898013337
            ],
            [
              -89.97871967151748,
              28.770209120463544
            ],
            [
              -89.97749201353479,
              28.770236205435623
            ],
            [
              -89.97748945239246,
              28.770146065004923
            ],
            [
              -89.97718253789566,
              28.770152834483437
            ],
            [
              -89.97717997702811,
              28.770062694026212
            ],
            [
              -89.9766684530704,
              28.77007397490242
            ],
            [
              -89.97667101349953,
              28.77016411540152
            ],
            [
              -89.97656870858508,
              28.770166371353216
            ],
            [
              -89.97657126893827,
              28.770256511859273
            ],
            [
              -89.9764689639244,
              28.77025876774204
            ],
            [
              -89.9764740844906,
              28.770439048766654
            ],
            [
              -89.97637177928965,
              28.770441304588854
            ],
            [
              -89.97637433950267,
              28.770531445107412
            ],
            [
              -89.9762720342023,
              28.770533700860682
            ],
            [
              -89.97627715448817,
              28.770713981910312
            ],
            [
              -89.97617484900069,
              28.77071623760302
            ],
            [
              -89.97617740907356,
              28.770806378134083
            ],
            [
              -89.97607510348665,
              28.77080863375785
            ],
            [
              -89.97607766348355,
              28.770898774295876
            ],
            [
              -89.97597535779722,
              28.770901029850705
            ],
            [
              -89.97597023799052,
              28.770720748756496
            ],
            [
              -89.97586793246782,
              28.770723004217277
            ],
            [
              -89.97587817177744,
              28.771083566433532
            ],
            [
              -89.97577586589229,
              28.771085821850484
            ],
            [
              -89.97577842566135,
              28.77117596240939
            ],
            [
              -89.97567611967675,
              28.771178217757402
            ],
            [
              -89.97568123907469,
              28.771358498887714
            ],
            [
              -89.97557893290298,
              28.771360754175156
            ],
            [
              -89.97558149253186,
              28.771450894746568
            ],
            [
              -89.97547918626076,
              28.771453149965065
            ],
            [
              -89.97548174581367,
              28.771543290543427
            ],
            [
              -89.97537943944313,
              28.771545545692994
            ],
            [
              -89.97538455840879,
              28.771725826862234
            ],
            [
              -89.97528225185116,
              28.77172808195122
            ],
            [
              -89.97528481126389,
              28.771818222542088
            ],
            [
              -89.97518250460682,
              28.771820477562137
            ],
            [
              -89.97518762329211,
              28.772000758756374
            ],
            [
              -89.97508531644793,
              28.772003013715846
            ],
            [
              -89.97509043500477,
              28.772183294921174
            ],
            [
              -89.97498812797348,
              28.77218554982007
            ],
            [
              -89.9749906871818,
              28.772275690428994
            ],
            [
              -89.97488838005107,
              28.772277945258942
            ],
            [
              -89.97489093918345,
              28.77236808587481
            ],
            [
              -89.97468632471141,
              28.772372595319503
            ],
            [
              -89.97468888368013,
              28.772462735950704
            ]
          ]
        ]
      },
      "properties": {
        "incident_id": "SP-020",
        "type": "AI-detected-slick",
        "source": "Sentinel-1 SAR",
        "method": "U-Net segmentation + radiometric filtering"
      }
    },
    {
      "type": "Feature",
      "geometry": {
        "type": "Polygon",
        "coordinates": [
          [
            [
              -89.97166567442623,
              28.774152876397558
            ],
            [
              -89.97013103412212,
              28.774186654965536
            ],
            [
              -89.97012847888881,
              28.774096513983512
            ],
            [
              -89.9694123131255,
              28.7741122713031
            ],
            [
              -89.96940975851783,
              28.77402213026118
            ],
            [
              -89.96828435498097,
              28.77404688401681
            ],
            [
              -89.96828180134972,
              28.773956742881616
            ],
            [
              -89.96807718254806,
              28.773961242542597
            ],
            [
              -89.96807462910391,
              28.7738711013893
            ],
            [
              -89.96787001043083,
              28.773875600724303
            ],
            [
              -89.96786745717381,
              28.77378545955289
            ],
            [
              -89.96776514790741,
              28.77378770909607
            ],
            [
              -89.96776259474979,
              28.773697567914905
            ],
            [
              -89.96755797635728,
              28.773702066752595
            ],
            [
              -89.96755542338677,
              28.77361192555333
            ],
            [
              -89.96745311426066,
              28.77361417484785
            ],
            [
              -89.96745056138955,
              28.773524033638818
            ],
            [
              -89.96734825233945,
              28.773526282847673
            ],
            [
              -89.96734569956773,
              28.77343614162888
            ],
            [
              -89.96724339059364,
              28.773438390752077
            ],
            [
              -89.9672382852607,
              28.77325810829358
            ],
            [
              -89.9671359764503,
              28.773260357322748
            ],
            [
              -89.96713087133958,
              28.773080074841914
            ],
            [
              -89.96702856269287,
              28.77308232377708
            ],
            [
              -89.96702601024276,
              28.772992182526202
            ],
            [
              -89.9665144672722,
              28.77300342600054
            ],
            [
              -89.96651701928383,
              28.77309356729314
            ],
            [
              -89.96610778434602,
              28.77310256071427
            ],
            [
              -89.9661052326852,
              28.773012419388294
            ],
            [
              -89.96579830662212,
              28.77301916361728
            ],
            [
              -89.96579575523609,
              28.772929022264858
            ],
            [
              -89.96569344661269,
              28.77293127017821
            ],
            [
              -89.96569089532606,
              28.772841128816037
            ],
            [
              -89.96558858677868,
              28.772843376643728
            ],
            [
              -89.96558603559143,
              28.7727532352718
            ],
            [
              -89.96548372712004,
              28.77275548301383
            ],
            [
              -89.96547607389157,
              28.772485058864568
            ],
            [
              -89.96557838209985,
              28.77248281114757
            ],
            [
              -89.96557327983061,
              28.772302528391023
            ],
            [
              -89.9656755878518,
              28.772300280613383
            ],
            [
              -89.96567303664705,
              28.772210139241334
            ],
            [
              -89.96587765247897,
              28.77220564347079
            ],
            [
              -89.9658751011105,
              28.772115502114023
            ],
            [
              -89.96607971672026,
              28.77211100605091
            ],
            [
              -89.96607716518808,
              28.77202086470941
            ],
            [
              -89.96617947288773,
              28.772018616570218
            ],
            [
              -89.96617692127957,
              28.77192847523566
            ],
            [
              -89.96638153646838,
              28.771923978742034
            ],
            [
              -89.96637898469652,
              28.771833837422747
            ],
            [
              -89.96658359966314,
              28.771829340636543
            ],
            [
              -89.96656573636001,
              28.77119835147886
            ],
            [
              -89.96666804321194,
              28.771196103028206
            ],
            [
              -89.9666501798682,
              28.770565113859785
            ],
            [
              -89.96654787363009,
              28.77056736225203
            ],
            [
              -89.96653766661318,
              28.770206796948525
            ],
            [
              -89.96643536071413,
              28.770209045230086
            ],
            [
              -89.96640984486751,
              28.76930763178914
            ],
            [
              -89.96630753983361,
              28.769309879909958
            ],
            [
              -89.96630498840095,
              28.769219738549758
            ],
            [
              -89.96620268344303,
              28.769221986584924
            ],
            [
              -89.96620013210976,
              28.769131845214968
            ],
            [
              -89.96609782722781,
              28.769134093164485
            ],
            [
              -89.96609272477171,
              28.768953810403666
            ],
            [
              -89.96599042005344,
              28.768956058259192
            ],
            [
              -89.96598531781949,
              28.768775775476044
            ],
            [
              -89.96588301326489,
              28.76877802323758
            ],
            [
              -89.96588046225312,
              28.76868788183555
            ],
            [
              -89.96577815777451,
              28.768690129511434
            ],
            [
              -89.96577560686212,
              28.768599988099652
            ],
            [
              -89.96567330245948,
              28.768602235689894
            ],
            [
              -89.96567075164647,
              28.768512094268356
            ],
            [
              -89.96556844731982,
              28.768514341772946
            ],
            [
              -89.96556589660618,
              28.768424200341663
            ],
            [
              -89.96536128809316,
              28.768428695102266
            ],
            [
              -89.96535873756656,
              28.768338553652885
            ],
            [
              -89.96515412918214,
              28.768343048087594
            ],
            [
              -89.9651515788426,
              28.768252906620123
            ],
            [
              -89.9650492747205,
              28.76825515371318
            ],
            [
              -89.96504672448035,
              28.76816501223595
            ],
            [
              -89.96494442043425,
              28.76816725924337
            ],
            [
              -89.96494187029344,
              28.768077117756395
            ],
            [
              -89.96483956632333,
              28.768079364678172
            ],
            [
              -89.9648370162819,
              28.76798922318145
            ],
            [
              -89.96473471238778,
              28.76799147001758
            ],
            [
              -89.96473216244571,
              28.76790132851111
            ],
            [
              -89.96462985862757,
              28.767903575261602
            ],
            [
              -89.96462730878487,
              28.767813433745378
            ],
            [
              -89.9644227012889,
              28.76781792699778
            ],
            [
              -89.96442015163322,
              28.767727785463478
            ],
            [
              -89.96431784795539,
              28.76773003196538
            ],
            [
              -89.96431529839907,
              28.76763989042133
            ],
            [
              -89.96411069118368,
              28.767644383176563
            ],
            [
              -89.9641081418144,
              28.767554241614427
            ],
            [
              -89.9639035347276,
              28.767558734043796
            ],
            [
              -89.96390098554538,
              28.767468592463565
            ],
            [
              -89.96379868207212,
              28.76747083855396
            ],
            [
              -89.96379613298926,
              28.76738069696398
            ],
            [
              -89.96359152618304,
              28.767385188896196
            ],
            [
              -89.9635889772872,
              28.767295047288144
            ],
            [
              -89.96348667395424,
              28.767297293129968
            ],
            [
              -89.96348412515776,
              28.76720715151217
            ],
            [
              -89.96338182190078,
              28.76720939726836
            ],
            [
              -89.96337927320367,
              28.76711925564081
            ],
            [
              -89.96317466683001,
              28.767123746904613
            ],
            [
              -89.96317211831993,
              28.767033605258987
            ],
            [
              -89.96306981520326,
              28.7670358507666
            ],
            [
              -89.96306471839347,
              28.76685556745445
            ],
            [
              -89.96296241544044,
              28.7668578128681
            ],
            [
              -89.96294457758788,
              28.766226821172815
            ],
            [
              -89.9630468799272,
              28.766224575817503
            ],
            [
              -89.96303159026888,
              28.765683725787987
            ],
            [
              -89.96292928845557,
              28.765685971093287
            ],
            [
              -89.96292674030772,
              28.76559582940844
            ],
            [
              -89.9627221368214,
              28.765600319770503
            ],
            [
              -89.96271958886057,
              28.76551017806756
            ],
            [
              -89.96241268380646,
              28.765516913005946
            ],
            [
              -89.96241013612033,
              28.765426771276612
            ],
            [
              -89.96220553286786,
              28.765431260832397
            ],
            [
              -89.96220298536872,
              28.765341119084983
            ],
            [
              -89.96199838224487,
              28.765345608314924
            ],
            [
              -89.96199583493274,
              28.765255466549437
            ],
            [
              -89.96189353344097,
              28.76525771104013
            ],
            [
              -89.96189098622818,
              28.76516756926491
            ],
            [
              -89.9617886848124,
              28.765169813669985
            ],
            [
              -89.96178613769897,
              28.76507967188501
            ],
            [
              -89.96168383635916,
              28.76508191620447
            ],
            [
              -89.96167874234264,
              28.764901632613643
            ],
            [
              -89.9615764411665,
              28.76490387683914
            ],
            [
              -89.96155606626877,
              28.764182742352794
            ],
            [
              -89.96165836674362,
              28.764180498193937
            ],
            [
              -89.96165072608665,
              28.763910072763295
            ],
            [
              -89.96175302628684,
              28.763907828552135
            ],
            [
              -89.96175047933689,
              28.763817686747423
            ],
            [
              -89.96185277943773,
              28.763815442467312
            ],
            [
              -89.96185023241178,
              28.763725300669527
            ],
            [
              -89.9619525324133,
              28.76372305632044
            ],
            [
              -89.96194998531139,
              28.76363291452959
            ],
            [
              -89.96215458510409,
              28.763628425616236
            ],
            [
              -89.96215203783852,
              28.763538283840624
            ],
            [
              -89.96204973803566,
              28.763540528327614
            ],
            [
              -89.96204719086943,
              28.763450386542257
            ],
            [
              -89.96214949058464,
              28.7634481420636
            ],
            [
              -89.96214694334242,
              28.76335800028517
            ],
            [
              -89.96194234407565,
              28.763362489148538
            ],
            [
              -89.96193979702042,
              28.763272347352032
            ],
            [
              -89.96183749745718,
              28.763274591659453
            ],
            [
              -89.96184004442475,
              28.763364733464286
            ],
            [
              -89.96173774476219,
              28.76336697770276
            ],
            [
              -89.96174029165377,
              28.763457119514506
            ],
            [
              -89.96153569211828,
              28.76346160777623
            ],
            [
              -89.96153823884623,
              28.76355174960324
            ],
            [
              -89.96133363908874,
              28.76355623757247
            ],
            [
              -89.9613310925361,
              28.763466095728806
            ],
            [
              -89.9612287927275,
              28.763468339589156
            ],
            [
              -89.9612262462742,
              28.763378197735754
            ],
            [
              -89.96112394654156,
              28.763380441510492
            ],
            [
              -89.9611214001876,
              28.763290299647352
            ],
            [
              -89.96101910053096,
              28.763292543336465
            ],
            [
              -89.96101400803335,
              28.7631122595893
            ],
            [
              -89.96091170854035,
              28.76311450318448
            ],
            [
              -89.96090407014447,
              28.762844077528175
            ],
            [
              -89.96080177090276,
              28.762846321021073
            ],
            [
              -89.96078140306184,
              28.762125185808937
            ],
            [
              -89.96088370160233,
              28.762122942382657
            ],
            [
              -89.96088115558709,
              28.762032800483126
            ],
            [
              -89.96108575245773,
              28.762028313415364
            ],
            [
              -89.96108320627886,
              28.76193817153108
            ],
            [
              -89.96149239952946,
              28.761929196501466
            ],
            [
              -89.96149494605893,
              28.762019338352438
            ],
            [
              -89.96169954278949,
              28.762014850357264
            ],
            [
              -89.96170208950593,
              28.762104992190164
            ],
            [
              -89.9619066863651,
              28.7621005038692
            ],
            [
              -89.96190923326853,
              28.762190645684036
            ],
            [
              -89.96201153176824,
              28.762188401399293
            ],
            [
              -89.96201407877099,
              28.76227854320438
            ],
            [
              -89.96211637734669,
              28.76227629883403
            ],
            [
              -89.96211892444877,
              28.76236644062938
            ],
            [
              -89.96222122310043,
              28.762364196173415
            ],
            [
              -89.96222377030185,
              28.762454337959017
            ],
            [
              -89.96232606902949,
              28.762452093417433
            ],
            [
              -89.96232861633024,
              28.762542235193298
            ],
            [
              -89.9625332139258,
              28.762537745861604
            ],
            [
              -89.96253576141352,
              28.762627887619395
            ],
            [
              -89.96274035913765,
              28.7626233979619
            ],
            [
              -89.96274290681238,
              28.762713539701615
            ],
            [
              -89.96294750466511,
              28.762709049718314
            ],
            [
              -89.9629500525268,
              28.762799191439957
            ],
            [
              -89.96315465050813,
              28.762794701130847
            ],
            [
              -89.96315719855681,
              28.7628848428344
            ],
            [
              -89.96346409570414,
              28.762878106766077
            ],
            [
              -89.96346154739248,
              28.762787965087522
            ],
            [
              -89.96387074307476,
              28.76277898261444
            ],
            [
              -89.96387329173703,
              28.762869124259648
            ],
            [
              -89.96428248758295,
              28.762860140516644
            ],
            [
              -89.96427993857006,
              28.76276999890478
            ],
            [
              -89.96448453624761,
              28.762765506586234
            ],
            [
              -89.9644819870711,
              28.762675364989626
            ],
            [
              -89.96499348062218,
              28.76266413288247
            ],
            [
              -89.96499603023695,
              28.762754274437384
            ],
            [
              -89.96520062775086,
              28.762749781036852
            ],
            [
              -89.96520317755262,
              28.762839922573665
            ],
            [
              -89.9654077751951,
              28.762835428847303
            ],
            [
              -89.96541032518387,
              28.762925570366033
            ],
            [
              -89.96551262407522,
              28.762923323378583
            ],
            [
              -89.96551517416331,
              28.763013464887567
            ],
            [
              -89.96561747313062,
              28.763011217814494
            ],
            [
              -89.96562002331808,
              28.763101359313726
            ],
            [
              -89.96572232236136,
              28.76309911215503
            ],
            [
              -89.96572487264815,
              28.763189253644498
            ],
            [
              -89.9658271717674,
              28.763187006400173
            ],
            [
              -89.96582972215354,
              28.763277147879894
            ],
            [
              -89.96593202134875,
              28.763274900549934
            ],
            [
              -89.96593457183424,
              28.763365042019906
            ],
            [
              -89.9660368711054,
              28.763362794604323
            ],
            [
              -89.96604197228677,
              28.763543077523348
            ],
            [
              -89.96614427172155,
              28.763540830013792
            ],
            [
              -89.96614682241744,
              28.763630971462845
            ],
            [
              -89.96624912192819,
              28.763628723867654
            ],
            [
              -89.96625167272342,
              28.763718865306966
            ],
            [
              -89.96635397231013,
              28.76371661762614
            ],
            [
              -89.96635652320471,
              28.763806759055694
            ],
            [
              -89.96645882286738,
              28.763804511289244
            ],
            [
              -89.96646137386132,
              28.763894652709038
            ],
            [
              -89.96656367359995,
              28.763892404856954
            ],
            [
              -89.96656877579822,
              28.764072687675622
            ],
            [
              -89.96667107570049,
              28.76407043972957
            ],
            [
              -89.96667362690482,
              28.76416058112845
            ],
            [
              -89.96677592688305,
              28.764158333096752
            ],
            [
              -89.96678102950212,
              28.76433861587359
            ],
            [
              -89.96688332964396,
              28.76433636774792
            ],
            [
              -89.96689098392328,
              28.764606791877558
            ],
            [
              -89.9669932843164,
              28.76460454364956
            ],
            [
              -89.96700349053657,
              28.76496510910261
            ],
            [
              -89.96710579126864,
              28.764962860763948
            ],
            [
              -89.96710834294058,
              28.76505300211534
            ],
            [
              -89.96721064374863,
              28.765050753691042
            ],
            [
              -89.96721319551993,
              28.765140895032673
            ],
            [
              -89.96731549640394,
              28.765138646522733
            ],
            [
              -89.9673180482746,
              28.76522878785461
            ],
            [
              -89.96762495111942,
              28.765222041835997
            ],
            [
              -89.96762750326478,
              28.76531218314142
            ],
            [
              -89.96772980427731,
              28.765309934305613
            ],
            [
              -89.96773235652203,
              28.765400075601285
            ],
            [
              -89.96783465761052,
              28.76539782667984
            ],
            [
              -89.96783720995461,
              28.765487967965758
            ],
            [
              -89.96793951111907,
              28.765485718958676
            ],
            [
              -89.96794461601768,
              28.765666001509565
            ],
            [
              -89.96804691734577,
              28.765663752408496
            ],
            [
              -89.96804946990028,
              28.765753893673487
            ],
            [
              -89.96815177130433,
              28.765751644486766
            ],
            [
              -89.9681594293011,
              28.766022068248223
            ],
            [
              -89.96826173095644,
              28.76601981895917
            ],
            [
              -89.96826938932152,
              28.76629024268287
            ],
            [
              -89.96816708740317,
              28.766292491996968
            ],
            [
              -89.96817474561057,
              28.766562915733026
            ],
            [
              -89.96827704779193,
              28.76656066639387
            ],
            [
              -89.9682796006388,
              28.76665080762806
            ],
            [
              -89.96838190289613,
              28.76664855820327
            ],
            [
              -89.96838445584237,
              28.766738699427687
            ],
            [
              -89.96858906049725,
              28.766734200329513
            ],
            [
              -89.96859161363054,
              28.766824341535827
            ],
            [
              -89.96869391602809,
              28.766822091862437
            ],
            [
              -89.96869646926075,
              28.766912233058996
            ],
            [
              -89.96879877173427,
              28.766909983299957
            ],
            [
              -89.96880643176551,
              28.767180406856095
            ],
            [
              -89.96890873449034,
              28.767178156994714
            ],
            [
              -89.96891639488993,
              28.76744858051311
            ],
            [
              -89.96881409190209,
              28.767450830399543
            ],
            [
              -89.96881919871834,
              28.76763111275478
            ],
            [
              -89.96871689554344,
              28.767633362580614
            ],
            [
              -89.96872200223116,
              28.767813644946912
            ],
            [
              -89.9686196988692,
              28.767815894712147
            ],
            [
              -89.96862225214295,
              28.76790603590153
            ],
            [
              -89.96851994868163,
              28.767908285597816
            ],
            [
              -89.96852250187939,
              28.767998426794144
            ],
            [
              -89.9684201983187,
              28.76800067642147
            ],
            [
              -89.96842275144049,
              28.76809081762473
            ],
            [
              -89.9683204477804,
              28.768093067183106
            ],
            [
              -89.96832300082623,
              28.76818320839331
            ],
            [
              -89.96811839329558,
              28.768187707294864
            ],
            [
              -89.96812094617776,
              28.76827784852035
            ],
            [
              -89.96801864230721,
              28.76828009786352
            ],
            [
              -89.96802119511344,
              28.768370239095944
            ],
            [
              -89.9679188911435,
              28.76837248837016
            ],
            [
              -89.96792144387373,
              28.768462629609516
            ],
            [
              -89.96781913980442,
              28.768464878814783
            ],
            [
              -89.96782169245867,
              28.768555020061086
            ],
            [
              -89.96761708410959,
              28.7685595182564
            ],
            [
              -89.9676221891025,
              28.76873980077815
            ],
            [
              -89.96751988473505,
              28.76874204977655
            ],
            [
              -89.96752243716138,
              28.768832191043654
            ],
            [
              -89.96731782821603,
              28.768836688825235
            ],
            [
              -89.96732038047868,
              28.768926830107624
            ],
            [
              -89.96721807590077,
              28.768929078890803
            ],
            [
              -89.96722573249592,
              28.769199502754546
            ],
            [
              -89.96732803733687,
              28.769197253946327
            ],
            [
              -89.96733058964634,
              28.769287395223074
            ],
            [
              -89.96753519946849,
              28.769282897358035
            ],
            [
              -89.96753775196501,
              28.769373038616667
            ],
            [
              -89.96794697181966,
              28.769364041925535
            ],
            [
              -89.9679495246786,
              28.769454183149374
            ],
            [
              -89.96815413471106,
              28.76944968432328
            ],
            [
              -89.96815668775709,
              28.769539825529005
            ],
            [
              -89.96836129791811,
              28.76953532637698
            ],
            [
              -89.9683638511512,
              28.769625467564612
            ],
            [
              -89.96846615630183,
              28.76962321786429
            ],
            [
              -89.96846870963431,
              28.769713359042164
            ],
            [
              -89.96867332007582,
              28.769708859392907
            ],
            [
              -89.96867587359537,
              28.76979900055266
            ],
            [
              -89.96888048416544,
              28.769794500577476
            ],
            [
              -89.96888303787206,
              28.769884641719116
            ],
            [
              -89.96929225922243,
              28.769875640807662
            ],
            [
              -89.9692948132915,
              28.769965781914483
            ],
            [
              -89.96939711868751,
              28.769963531485004
            ],
            [
              -89.96940478122801,
              28.770233954771953
            ],
            [
              -89.96950708687537,
              28.7702317042401
            ],
            [
              -89.96950964116662,
              28.770321845324588
            ],
            [
              -89.96961194688994,
              28.77031959470708
            ],
            [
              -89.9696145012806,
              28.77040973578179
            ],
            [
              -89.96981911286751,
              28.770405234298146
            ],
            [
              -89.96982166744526,
              28.770495375354734
            ],
            [
              -89.96971936156997,
              28.770497626143573
            ],
            [
              -89.96972447058522,
              28.770677908269235
            ],
            [
              -89.96962216452285,
              28.770680158997465
            ],
            [
              -89.96962471896036,
              28.770770300066538
            ],
            [
              -89.96952241279858,
              28.770772550725805
            ],
            [
              -89.96953263031493,
              28.77113311502138
            ],
            [
              -89.97024877565661,
              28.771117358549077
            ],
            [
              -89.97025133067879,
              28.771207499560965
            ],
            [
              -89.97045594370353,
              28.771202996999225
            ],
            [
              -89.9704584989128,
              28.77129313799299
            ],
            [
              -89.97066311206608,
              28.77128863510531
            ],
            [
              -89.97066566746244,
              28.771378776080955
            ],
            [
              -89.9707679741092,
              28.771376524512785
            ],
            [
              -89.97077052960496,
              28.77146666547867
            ],
            [
              -89.9708728363277,
              28.77146441382483
            ],
            [
              -89.97087539192286,
              28.771554554780938
            ],
            [
              -89.97097769872157,
              28.77155230304143
            ],
            [
              -89.97098281012245,
              28.771732584932714
            ],
            [
              -89.97108511708481,
              28.771730333099182
            ],
            [
              -89.97108767289052,
              28.77182047403435
            ],
            [
              -89.9713945939704,
              28.771813718044815
            ],
            [
              -89.97139715005089,
              28.77190385895349
            ],
            [
              -89.97149945714179,
              28.771901606793993
            ],
            [
              -89.9714969009736,
              28.771811465893684
            ],
            [
              -89.97159920796507,
              28.771809213665232
            ],
            [
              -89.97159665172092,
              28.771719072771848
            ],
            [
              -89.97169895861299,
              28.771716820474442
            ],
            [
              -89.97169640229285,
              28.77162667958802
            ],
            [
              -89.97179870908552,
              28.77162442722166
            ],
            [
              -89.97180637834414,
              28.771894849851634
            ],
            [
              -89.9717040712884,
              28.77189710224307
            ],
            [
              -89.9717066276437,
              28.771987243125263
            ],
            [
              -89.97160432048854,
              28.771989495447745
            ],
            [
              -89.97160687676785,
              28.772079636336876
            ],
            [
              -89.9715045695133,
              28.772081888590403
            ],
            [
              -89.97151735064715,
              28.772532593056738
            ],
            [
              -89.97161965834017,
              28.772530340761413
            ],
            [
              -89.97163244020545,
              28.77298104515066
            ],
            [
              -89.97173474832523,
              28.77297879273623
            ],
            [
              -89.97173986132877,
              28.773159074465337
            ],
            [
              -89.97184216961222,
              28.773156821956874
            ],
            [
              -89.97184472621927,
              28.77324696281095
            ],
            [
              -89.9719470345787,
              28.77324471021682
            ],
            [
              -89.97194959128517,
              28.77333485106111
            ],
            [
              -89.97215420814427,
              28.77333034562417
            ],
            [
              -89.97215676503784,
              28.773420486450345
            ],
            [
              -89.97225907353751,
              28.773418233607533
            ],
            [
              -89.97226163053051,
              28.773508374423937
            ],
            [
              -89.97236393910616,
              28.77350612149545
            ],
            [
              -89.97237416754615,
              28.773866684713486
            ],
            [
              -89.9722718586197,
              28.773868937675413
            ],
            [
              -89.9722744156713,
              28.773959078484758
            ],
            [
              -89.97206979760784,
              28.77396358419339
            ],
            [
              -89.97207235449577,
              28.77405372501803
            ],
            [
              -89.9716631178774,
              28.774062735540888
            ],
            [
              -89.97166567442623,
              28.774152876397558
            ]
          ]
        ]
      },
      "properties": {
        "incident_id": "SP-020",
        "type": "AI-detected-slick",
        "source": "Sentinel-1 SAR",
        "method": "U-Net segmentation + radiometric filtering"
      }
    },
    {
      "type": "Feature",
      "geometry": {
        "type": "Polygon",
        "coordinates": [
          [
            [
              -89.9407118157286,
              28.765540369593904
            ],
            [
              -89.94020029692932,
              28.76555151080247
            ],
            [
              -89.94019776832567,
              28.765461367264727
            ],
            [
              -89.93927703454575,
              28.76548141649581
            ],
            [
              -89.93927450674275,
              28.765391272882244
            ],
            [
              -89.93906989928396,
              28.765395727400097
            ],
            [
              -89.93906737166789,
              28.765305583768583
            ],
            [
              -89.93876046065583,
              28.765312264940807
            ],
            [
              -89.93875793331436,
              28.76522212128309
            ],
            [
              -89.93773489673114,
              28.765244386750027
            ],
            [
              -89.937732370278,
              28.76515424300826
            ],
            [
              -89.93752776299769,
              28.765158695157528
            ],
            [
              -89.93752523673146,
              28.765068551397825
            ],
            [
              -89.93742293316161,
              28.765070777348246
            ],
            [
              -89.93742040699463,
              28.76498063357888
            ],
            [
              -89.93731810350089,
              28.764982859443734
            ],
            [
              -89.93731557743315,
              28.764892715664697
            ],
            [
              -89.93721327401549,
              28.764894941443995
            ],
            [
              -89.93720822209013,
              28.764714653865173
            ],
            [
              -89.93710591883622,
              28.764716879550644
            ],
            [
              -89.93710339297859,
              28.76462673575087
            ],
            [
              -89.93700108980077,
              28.764628961350784
            ],
            [
              -89.93699856404238,
              28.764538817541336
            ],
            [
              -89.93689626094067,
              28.764541043055694
            ],
            [
              -89.93689120963396,
              28.76436075541606
            ],
            [
              -89.93678890669601,
              28.764362980836598
            ],
            [
              -89.93677627907022,
              28.763912261671596
            ],
            [
              -89.936673976559,
              28.763914486973537
            ],
            [
              -89.93665882431615,
              28.76337362387955
            ],
            [
              -89.936454220311,
              28.76337807415242
            ],
            [
              -89.93645169515305,
              28.763287930281983
            ],
            [
              -89.93634939322078,
              28.763290155294225
            ],
            [
              -89.93634686816206,
              28.76320001141412
            ],
            [
              -89.93614226443812,
              28.763204461190195
            ],
            [
              -89.9361397395663,
              28.76311431729217
            ],
            [
              -89.93603743777463,
              28.763116542056004
            ],
            [
              -89.93603491300206,
              28.763026398148316
            ],
            [
              -89.93583030955932,
              28.763030847427594
            ],
            [
              -89.93582778497365,
              28.762940703501975
            ],
            [
              -89.93572548332259,
              28.76294292801742
            ],
            [
              -89.93572295883614,
              28.76285278408214
            ],
            [
              -89.93551835567462,
              28.762857232864633
            ],
            [
              -89.93551583137507,
              28.76276708891144
            ],
            [
              -89.93541352986462,
              28.762769313178488
            ],
            [
              -89.93541100566432,
              28.762679169215616
            ],
            [
              -89.935206402784,
              28.762683617501335
            ],
            [
              -89.93520387877058,
              28.762593473520557
            ],
            [
              -89.93510157740073,
              28.762595697539222
            ],
            [
              -89.93509905348657,
              28.762505553548774
            ],
            [
              -89.9349967521928,
              28.762507777481893
            ],
            [
              -89.93499422837785,
              28.76241763348179
            ],
            [
              -89.93489192716018,
              28.762419857329355
            ],
            [
              -89.93488940344447,
              28.7623297133196
            ],
            [
              -89.9347871023029,
              28.762331937081616
            ],
            [
              -89.93478457868642,
              28.762241793062188
            ],
            [
              -89.93468227762094,
              28.76224401673866
            ],
            [
              -89.93467975410368,
              28.76215387270957
            ],
            [
              -89.93447515211331,
              28.762158319814137
            ],
            [
              -89.93447262878296,
              28.76206817576714
            ],
            [
              -89.93385882306018,
              28.762081515176344
            ],
            [
              -89.93385630026735,
              28.761991371078416
            ],
            [
              -89.93365169844255,
              28.761995816913327
            ],
            [
              -89.93364917583659,
              28.761905672797496
            ],
            [
              -89.9335468749945,
              28.76190789559076
            ],
            [
              -89.93354435248779,
              28.761817751465273
            ],
            [
              -89.93344205172178,
              28.761819974172994
            ],
            [
              -89.93343952931428,
              28.76172983003785
            ],
            [
              -89.9335418299926,
              28.761727607338376
            ],
            [
              -89.93353678503699,
              28.761547319080368
            ],
            [
              -89.93363908552844,
              28.761545096320102
            ],
            [
              -89.93363656298033,
              28.761454952197244
            ],
            [
              -89.93373886337257,
              28.76145272936795
            ],
            [
              -89.93373634074834,
              28.761362585251934
            ],
            [
              -89.9339409413228,
              28.761358139377975
            ],
            [
              -89.93393841853482,
              28.761267995277056
            ],
            [
              -89.93434761919433,
              28.76125910263469
            ],
            [
              -89.9343450960673,
              28.761168958565378
            ],
            [
              -89.9346519961775,
              28.761162288296838
            ],
            [
              -89.93464947279908,
              28.76107214425089
            ],
            [
              -89.93516097231307,
              28.761061025632188
            ],
            [
              -89.93515844850795,
              28.760970881626093
            ],
            [
              -89.93556764756025,
              28.760961985372983
            ],
            [
              -89.93556512341608,
              28.76087184139851
            ],
            [
              -89.9357697226975,
              28.760867392824746
            ],
            [
              -89.93577224701698,
              28.7609575367827
            ],
            [
              -89.9359768464274,
              28.76095308788328
            ],
            [
              -89.93597937093378,
              28.761043231823315
            ],
            [
              -89.93628627022558,
              28.76103655786976
            ],
            [
              -89.93628879500646,
              28.761126701783613
            ],
            [
              -89.94099457512782,
              28.76102428034711
            ],
            [
              -89.94099204631482,
              28.76093413681347
            ],
            [
              -89.94273113127196,
              28.760896244167064
            ],
            [
              -89.94273366157502,
              28.760986387560045
            ],
            [
              -89.94314285789898,
              28.76097746836417
            ],
            [
              -89.94314538856425,
              28.761067611722634
            ],
            [
              -89.94345228594835,
              28.761060921489396
            ],
            [
              -89.94345481688819,
              28.76115106482162
            ],
            [
              -89.94376171443082,
              28.76114437386798
            ],
            [
              -89.94376424564521,
              28.761234517173953
            ],
            [
              -89.94386654489054,
              28.761232286693218
            ],
            [
              -89.94386907620421,
              28.76132242998952
            ],
            [
              -89.94407367483534,
              28.761317968779636
            ],
            [
              -89.94407620633591,
              28.761408112057957
            ],
            [
              -89.94428080509593,
              28.76140365052237
            ],
            [
              -89.9442833367834,
              28.76149379378273
            ],
            [
              -89.94469253451477,
              28.761484869751005
            ],
            [
              -89.94469506656448,
              28.76157501297682
            ],
            [
              -89.94653645563459,
              28.761534839382286
            ],
            [
              -89.9465339220071,
              28.761444696305595
            ],
            [
              -89.94888680054802,
              28.761393327129657
            ],
            [
              -89.94888933619153,
              28.761483470015662
            ],
            [
              -89.94909393421027,
              28.761479001182078
            ],
            [
              -89.94909647004069,
              28.761569144050082
            ],
            [
              -89.94919876912027,
              28.761566909509064
            ],
            [
              -89.9492038409913,
              28.761747195224263
            ],
            [
              -89.94930614023455,
              28.761744960589375
            ],
            [
              -89.94930867627517,
              28.761835103436557
            ],
            [
              -89.94941097559446,
              28.76183286871609
            ],
            [
              -89.94942619260816,
              28.76237372571989
            ],
            [
              -89.94932389276293,
              28.76237596049013
            ],
            [
              -89.94932896501854,
              28.762556246163395
            ],
            [
              -89.94922666498637,
              28.762558480872933
            ],
            [
              -89.94922920104396,
              28.762648623715755
            ],
            [
              -89.9491269009125,
              28.76265085835631
            ],
            [
              -89.94912943689407,
              28.762741001206013
            ],
            [
              -89.94902713666333,
              28.762743235777563
            ],
            [
              -89.94902967256886,
              28.762833378634156
            ],
            [
              -89.94892737223883,
              28.762835613136716
            ],
            [
              -89.94892990806831,
              28.76292575600019
            ],
            [
              -89.94882760763902,
              28.762927990433763
            ],
            [
              -89.94883014339247,
              28.76301813330412
            ],
            [
              -89.94872784286387,
              28.763020367668688
            ],
            [
              -89.9487303785413,
              28.76311051054594
            ],
            [
              -89.94852577727394,
              28.7631149790598
            ],
            [
              -89.94852831278766,
              28.763205121952225
            ],
            [
              -89.94842601204888,
              28.763207356101514
            ],
            [
              -89.94842854748657,
              28.763297499000817
            ],
            [
              -89.9483262466485,
              28.76329973308111
            ],
            [
              -89.94832878201015,
              28.763389875987304
            ],
            [
              -89.9482264810728,
              28.763392109998602
            ],
            [
              -89.94822901635841,
              28.76348225291168
            ],
            [
              -89.94812671532178,
              28.76348448685397
            ],
            [
              -89.94812925053137,
              28.76357462977393
            ],
            [
              -89.94802694939544,
              28.763576863647224
            ],
            [
              -89.94802948452897,
              28.763667006574074
            ],
            [
              -89.94792718329377,
              28.763669240378366
            ],
            [
              -89.94792971835128,
              28.7637593833121
            ],
            [
              -89.94782741701678,
              28.76376161704739
            ],
            [
              -89.94782995199824,
              28.76385175998801
            ],
            [
              -89.94762534911906,
              28.763856227243295
            ],
            [
              -89.94762788393682,
              28.763946370199083
            ],
            [
              -89.94742328083584,
              28.763950837161776
            ],
            [
              -89.94742581548988,
              28.76404098013274
            ],
            [
              -89.94711891048827,
              28.76404768002195
            ],
            [
              -89.94712144489093,
              28.764137823016373
            ],
            [
              -89.94671223770881,
              28.764146755153035
            ],
            [
              -89.94671477177243,
              28.764236898179206
            ],
            [
              -89.94630556405376,
              28.764245829112316
            ],
            [
              -89.94630809777834,
              28.76433597217023
            ],
            [
              -89.94610349367399,
              28.764340437189578
            ],
            [
              -89.94610602723485,
              28.76443058026267
            ],
            [
              -89.94579912072818,
              28.764437277236844
            ],
            [
              -89.94580165403767,
              28.764527420333376
            ],
            [
              -89.94539244484886,
              28.76453634858329
            ],
            [
              -89.94539497781929,
              28.764626491711553
            ],
            [
              -89.94478116316174,
              28.764639881817267
            ],
            [
              -89.94478369561776,
              28.764730024993817
            ],
            [
              -89.94457909046369,
              28.76473448776058
            ],
            [
              -89.94458162275599,
              28.764824630952308
            ],
            [
              -89.94407010922932,
              28.764835786557928
            ],
            [
              -89.94407264109488,
              28.76492592978964
            ],
            [
              -89.94345882395382,
              28.76493931401528
            ],
            [
              -89.94346135530496,
              28.765029457295267
            ],
            [
              -89.94264293109902,
              28.765047298667003
            ],
            [
              -89.9426454617604,
              28.765137442011802
            ],
            [
              -89.94244085541756,
              28.765141901598312
            ],
            [
              -89.9424433859152,
              28.76523204495827
            ],
            [
              -89.94203417273961,
              28.765240963236806
            ],
            [
              -89.94203670289816,
              28.765331106628455
            ],
            [
              -89.94183209606544,
              28.765335565320477
            ],
            [
              -89.94183462606026,
              28.765425708727275
            ],
            [
              -89.94163001900579,
              28.76543016712665
            ],
            [
              -89.9416274891863,
              28.765340023703313
            ],
            [
              -89.94101366827059,
              28.765353396996613
            ],
            [
              -89.94101619756402,
              28.76544354046959
            ],
            [
              -89.9407092866866,
              28.765450226097514
            ],
            [
              -89.9407118157286,
              28.765540369593904
            ]
          ]
        ]
      },
      "properties": {
        "incident_id": "SP-020",
        "type": "AI-detected-slick",
        "source": "Sentinel-1 SAR",
        "method": "U-Net segmentation + radiometric filtering"
      }
    }
  ]
}